url,name,title,direccion,horario,disponibilidad,province,latitude,longitude
https://www.citapreviadnie.es/citaPreviaDniExp/ObtenerFechaCitaEspera.action?op=obMeses&equipo=15181L6D1&nombre=U.D.%20DE%20CARBALLO&seleccion=hora&espera=1,U.D. DE CARBALLO,"U.D. DE CARBALLO RUA CERVANTES S/N, (CARBALLO)","RUA CERVANTES S/N, (CARBALLO)",LMXJV 09:00-14:30; SD sin horario,Disponibilidad de citas: Alta,A Coruña,43.2133072,-8.6882687
https://www.citapreviadnie.es/citaPreviaDniExp/ObtenerFechaCitaEspera.action?op=obMeses&equipo=15341L6D1&nombre=U.D.%20DE%20FERROL&seleccion=hora&espera=1,U.D. DE FERROL,"U.D. DE FERROL CALLE SAN AMARO, S/N, (FERROL)","CALLE SAN AMARO, S/N, (FERROL)",LMXJV 09:00-14:30; SD sin horario,Disponibilidad de citas: Alta,A Coruña,43.4838784,-8.2277219
https://www.citapreviadnie.es/citaPreviaDniExp/ObtenerFechaCitaEspera.action?op=obMeses&equipo=15381A6D1&nombre=U.D.%20DE%20A%20CORU%C3%91A&seleccion=hora&espera=1,U.D. DE A CORUÑA,"U.D. DE A CORUÑA AVENIDA PORTO DA CORUÑA, 7, (A CORUÑA)","AVENIDA PORTO DA CORUÑA, 7, (A CORUÑA)",LMXJV 09:00-14:30; SD sin horario,Disponibilidad de citas: Alta,A Coruña,43.366111950000004,-8.40306562318112
https://www.citapreviadnie.es/citaPreviaDniExp/ObtenerFechaCitaEspera.action?op=obMeses&equipo=15381E6D1&nombre=U.D.%20DE%20A%20CORU%C3%91A-LONZAS&seleccion=hora&espera=1,U.D. DE A CORUÑA-LONZAS,"U.D. DE A CORUÑA-LONZAS CALLE MÉDICO DEVESA NUÑEZ, 4, (LONZAS)","CALLE MÉDICO DEVESA NUÑEZ, 4, (LONZAS)",LMXJV 09:00-14:30; SD sin horario,Disponibilidad de citas: Alta,A Coruña,43.346699150000006,-8.415388346085262
https://www.citapreviadnie.es/citaPreviaDniExp/ObtenerFechaCitaEspera.action?op=obMeses&equipo=15721L6D1&nombre=U.D.%20DE%20RIBEIRA&seleccion=hora&espera=1,U.D. DE RIBEIRA,"U.D. DE RIBEIRA AVENIDA DAS AIROS, 21, (RIBEIRA)","AVENIDA DAS AIROS, 21, (RIBEIRA)",LMXJV 09:00-14:30; SD sin horario,Disponibilidad de citas: Alta,A Coruña,,
https://www.citapreviadnie.es/citaPreviaDniExp/ObtenerFechaCitaEspera.action?op=obMeses&equipo=15771L6D1&nombre=U.D.%20DE%20SANTIAGO%20DE%20COMPOSTELA&seleccion=hora&espera=1,U.D. DE SANTIAGO DE COMPOSTELA,"U.D. DE SANTIAGO DE COMPOSTELA AVENIDA RODRIGO DE PADRON, 3, (SANTIAGO DE COMPOSTELA)","AVENIDA RODRIGO DE PADRON, 3, (SANTIAGO DE COMPOSTELA)",LMXJ 09:00-14:30/16:00-19:30; V 09:00-14:30; SD sin horario,Disponibilidad de citas: Alta,A Coruña,42.8785371,-8.546069619171128
https://www.citapreviadnie.es/citaPreviaDniExp/ObtenerFechaCitaEspera.action?op=obMeses&equipo=27421A6D1&nombre=U.D.%20DE%20LUGO&seleccion=hora&espera=1,U.D. DE LUGO,"U.D. DE LUGO AVENIDA DE RAMON FERREIRO, 14, (LUGO)","AVENIDA DE RAMON FERREIRO, 14, (LUGO)",LMXJ 09:00-17:00; V 09:00-14:30; SD sin horario,Disponibilidad de citas: Alta,Lugo,43.0047039,-7.5547593
https://www.citapreviadnie.es/citaPreviaDniExp/ObtenerFechaCitaEspera.action?op=obMeses&equipo=27466L6D1&nombre=U.D.%20DE%20MONFORTE%20DE%20LEMOS&seleccion=hora&espera=1,U.D. DE MONFORTE DE LEMOS,"U.D. DE MONFORTE DE LEMOS C/ MIGUEL DE CERVANTES, 1, (MONFORTE DE LEMOS)","C/ MIGUEL DE CERVANTES, 1, (MONFORTE DE LEMOS)",LMXJV 09:00-14:30; SD sin horario,Disponibilidad de citas: Alta,Lugo,,
https://www.citapreviadnie.es/citaPreviaDniExp/ObtenerFechaCitaEspera.action?op=obMeses&equipo=27976L6D1&nombre=U.D.%20DE%20VIVEIRO&seleccion=hora&espera=1,U.D. DE VIVEIRO,"U.D. DE VIVEIRO AVDA. RAMÓN CANOSA, S/N, (VIVEIRO)","AVDA. RAMÓN CANOSA, S/N, (VIVEIRO)",LMXJV 09:00-14:30; SD sin horario,Disponibilidad de citas: Alta,Lugo,43.6644736,-7.594516
https://www.citapreviadnie.es/citaPreviaDniExp/ObtenerFechaCitaEspera.action?op=obMeses&equipo=32511A6D1&nombre=U.D.%20DE%20OURENSE&seleccion=hora&espera=1,U.D. DE OURENSE,"U.D. DE OURENSE CALLE MESTRE VIDE, 4, (OURENSE)","CALLE MESTRE VIDE, 4, (OURENSE)",LMXJ 09:00-14:30/15:00-17:00; V 09:00-14:30; SD sin horario,Disponibilidad de citas: Alta,Ourense,,
https://www.citapreviadnie.es/citaPreviaDniExp/ObtenerFechaCitaEspera.action?op=obMeses&equipo=32831L6D1&nombre=U.D.%20DE%20VER%C3%8DN&seleccion=hora&espera=1,U.D. DE VERÍN,"U.D. DE VERÍN AVDA. DE PORTUGAL, 17, (VERIN)","AVDA. DE PORTUGAL, 17, (VERIN)",LMXJV 09:00-14:30; SD sin horario,Disponibilidad de citas: Alta,Ourense,41.9329919,-7.4394821
https://www.citapreviadnie.es/citaPreviaDniExp/ObtenerFechaCitaEspera.action?op=obMeses&equipo=36369L6D1&nombre=U.D.%20DE%20LALIN&seleccion=hora&espera=1,U.D. DE LALIN,"U.D. DE LALIN PLAZA GALICIA Nº1, (LALÍN)","PLAZA GALICIA Nº1, (LALÍN)",LMXJV 09:00-14:30; SD sin horario,Disponibilidad de citas: Alta,Pontevedra,,
https://www.citapreviadnie.es/citaPreviaDniExp/ObtenerFechaCitaEspera.action?op=obMeses&equipo=36401L6D1&nombre=U.D.%20DE%20MAR%C3%8DN&seleccion=hora&espera=1,U.D. DE MARÍN,"U.D. DE MARÍN CALLE LAMEIRA 27, (MARIN)","CALLE LAMEIRA 27, (MARIN)",LMXJ 09:00-14:30/16:00-19:00; V 09:00-14:30; SD sin horario,Disponibilidad de citas: Alta,Pontevedra,,
https://www.citapreviadnie.es/citaPreviaDniExp/ObtenerFechaCitaEspera.action?op=obMeses&equipo=36609A6D1&nombre=U.D.%20DE%20PONTEVEDRA&seleccion=hora&espera=1,U.D. DE PONTEVEDRA,"U.D. DE PONTEVEDRA CALLE FERNÁNDEZ VILLAVERDE, NÚM. 1, (PONTEVEDRA)","CALLE FERNÁNDEZ VILLAVERDE, NÚM. 1, (PONTEVEDRA)",LMXJV 09:00-14:30; SD sin horario,Disponibilidad de citas: Alta,Pontevedra,,
https://www.citapreviadnie.es/citaPreviaDniExp/ObtenerFechaCitaEspera.action?op=obMeses&equipo=36801P6D1&nombre=U.D.%20DE%20SALVATERRA%20DE%20MI%C3%91O&seleccion=hora&espera=1,U.D. DE SALVATERRA DE MIÑO,"U.D. DE SALVATERRA DE MIÑO RUA MATÍAS CANDEIRA Nº1, (SALVATERRA DE MIÑO)","RUA MATÍAS CANDEIRA Nº1, (SALVATERRA DE MIÑO)",LMXJV 09:00-14:30; SD sin horario,Disponibilidad de citas: Alta,Pontevedra,42.0798462,-8.4976996
https://www.citapreviadnie.es/citaPreviaDniExp/ObtenerFechaCitaEspera.action?op=obMeses&equipo=36881P6D1&nombre=U.D.%20DE%20TUI&seleccion=hora&espera=1,U.D. DE TUI,"U.D. DE TUI CALLE PARROCO RODRIGUEZ VAZQUEZ, 1, (TUI)","CALLE PARROCO RODRIGUEZ VAZQUEZ, 1, (TUI)",LMXJV 09:00-14:30; SD sin horario,Disponibilidad de citas: Alta,Pontevedra,,
https://www.citapreviadnie.es/citaPreviaDniExp/ObtenerFechaCitaEspera.action?op=obMeses&equipo=36913L6D3&nombre=U.D.%20DE%20VIGO&seleccion=hora&espera=1,U.D. DE VIGO,"U.D. DE VIGO RUA ALVARO CUNQUEIRO, 6, (VIGO)","RUA ALVARO CUNQUEIRO, 6, (VIGO)",LMXJ 09:00-14:30/16:00-19:00; V 09:00-14:30; S 09:00-14:00; D sin hora,Disponibilidad de citas: Alta,Pontevedra,,
https://www.citapreviadnie.es/citaPreviaDniExp/ObtenerFechaCitaEspera.action?op=obMeses&equipo=36961L6D1&nombre=U.D.%20DE%20VILAGARC%C3%8DA%20DE%20AROUSA&seleccion=hora&espera=1,U.D. DE VILAGARCÍA DE AROUSA,"U.D. DE VILAGARCÍA DE AROUSA AVENIDA DE LA MARINA, 9, (VILAGARCIA DE AROUSA)","AVENIDA DE LA MARINA, 9, (VILAGARCIA DE AROUSA)",LMXJ 09:00-14:30/16:00-19:00; V 09:00-14:30; SD sin horario,Disponibilidad de citas: Alta,Pontevedra,,
https://www.citapreviadnie.es/citaPreviaDniExp/ObtenerFechaCitaEspera.action?op=obMeses&equipo=33037L6D1&nombre=U.D.%20DE%20AVILES&seleccion=hora&espera=1,U.D. DE AVILES,"U.D. DE AVILES CALLE RIO SAN MARTIN, 2, (AVILES)","CALLE RIO SAN MARTIN, 2, (AVILES)",LMXJV 09:00-14:30; SD sin horario,Disponibilidad de citas: Alta,Asturias,43.5480104,-5.9307713
https://www.citapreviadnie.es/citaPreviaDniExp/ObtenerFechaCitaEspera.action?op=obMeses&equipo=33277L6D1&nombre=U.D.%20DE%20GIJ%C3%93N-1&seleccion=hora&espera=1,U.D. DE GIJÓN-1,"U.D. DE GIJÓN-1 PLAZA PADRE MAXIMO GONZALEZ, S/N, (GIJON/XIXON)","PLAZA PADRE MAXIMO GONZALEZ, S/N, (GIJON/XIXON)",LMXJ 09:00-14:30/16:00-19:00; V 09:00-14:30; SD sin horario,Disponibilidad de citas: Alta,Asturias,,
https://www.citapreviadnie.es/citaPreviaDniExp/ObtenerFechaCitaEspera.action?op=obMeses&equipo=33277L6D2&nombre=U.D.%20DE%20GIJ%C3%93N-2&seleccion=hora&espera=1,U.D. DE GIJÓN-2,"U.D. DE GIJÓN-2 CALLE FEIJOO 44, (GIJON/XIXON)","CALLE FEIJOO 44, (GIJON/XIXON)",LMXJV 09:00-14:30; SD sin horario,Disponibilidad de citas: Alta,Asturias,43.5320246,-5.6506887
https://www.citapreviadnie.es/citaPreviaDniExp/ObtenerFechaCitaEspera.action?op=obMeses&equipo=33361L6D1&nombre=U.D.%20DE%20LANGREO&seleccion=hora&espera=1,U.D. DE LANGREO,"U.D. DE LANGREO CALLE CONDE SIZZO 1, (LANGREO/LLANGREU)","CALLE CONDE SIZZO 1, (LANGREO/LLANGREU)",LMXJV 09:00-14:30; SD sin horario,Disponibilidad de citas: Alta,Asturias,43.3050905,-5.6922986
https://www.citapreviadnie.es/citaPreviaDniExp/ObtenerFechaCitaEspera.action?op=obMeses&equipo=33421L6D1&nombre=U.D.%20DE%20LUARCA&seleccion=hora&espera=1,U.D. DE LUARCA,"U.D. DE LUARCA CALLE OLAVARRIETA 25, (LUARCA)","CALLE OLAVARRIETA 25, (LUARCA)",LMXJV 09:00-14:30; SD sin horario,Disponibilidad de citas: Alta,Asturias,43.5443497,-6.5336852
https://www.citapreviadnie.es/citaPreviaDniExp/ObtenerFechaCitaEspera.action?op=obMeses&equipo=33433L6D1&nombre=U.D.%20DE%20MIERES&seleccion=hora&espera=1,U.D. DE MIERES,"U.D. DE MIERES CALLE VALERIANO MIRANDA, 39, (MIERES)","CALLE VALERIANO MIRANDA, 39, (MIERES)",LMXJV 09:00-14:30; SD sin horario,Disponibilidad de citas: Alta,Asturias,43.2448311,-5.7766137
https://www.citapreviadnie.es/citaPreviaDniExp/ObtenerFechaCitaEspera.action?op=obMeses&equipo=33517A6D1&nombre=U.D.%20DE%20OVIEDO&seleccion=hora&espera=1,U.D. DE OVIEDO,"U.D. DE OVIEDO CALLE GENERAL YAGÜE, 9, (OVIEDO)","CALLE GENERAL YAGÜE, 9, (OVIEDO)",LMXJ 09:00-14:30/15:00-19:00; V 09:00-14:30; SD sin horario,Disponibilidad de citas: Alta,Asturias,43.3626291,-5.8533245
https://www.citapreviadnie.es/citaPreviaDniExp/ObtenerFechaCitaEspera.action?op=obMeses&equipo=33769L6D1&nombre=U.D.%20DE%20SIERO&seleccion=hora&espera=1,U.D. DE SIERO,"U.D. DE SIERO CALLE MAESTROS MARTIN GALACHE, S/N, (LA POLA SIERO)","CALLE MAESTROS MARTIN GALACHE, S/N, (LA POLA SIERO)",LMXJV 09:00-14:30; SD sin horario,Disponibilidad de citas: Media,Asturias,,
https://www.citapreviadnie.es/citaPreviaDniExp/ObtenerFechaCitaEspera.action?op=obMeses&equipo=33769L6D2&nombre=U.D.%20DE%20LUGONES&seleccion=hora&espera=1,U.D. DE LUGONES,"U.D. DE LUGONES C/ MONTE NARANCO ESQUINA ALEJANDRO CASONA, (SIERO)","C/ MONTE NARANCO ESQUINA ALEJANDRO CASONA, (SIERO)",LMXJV 09:00-14:30; SD sin horario,Disponibilidad de citas: Alta,Asturias,,
https://www.citapreviadnie.es/citaPreviaDniExp/ObtenerFechaCitaEspera.action?op=obMeses&equipo=39172L6D1&nombre=U.D.%20DE%20CASTRO%20URDIALES&seleccion=hora&espera=1,U.D. DE CASTRO URDIALES,"U.D. DE CASTRO URDIALES C/ Cayetano Tueros nº 8, (CASTRO URDIALES)","C/ Cayetano Tueros nº 8, (CASTRO URDIALES)",LMXJV 09:00-14:30; SD sin horario,Disponibilidad de citas: Alta,Cantabria,43.3847726,-3.2209218
https://www.citapreviadnie.es/citaPreviaDniExp/ObtenerFechaCitaEspera.action?op=obMeses&equipo=39676A6D1&nombre=U.D.%20DE%20SANTANDER-1&seleccion=hora&espera=1,U.D. DE SANTANDER-1,"U.D. DE SANTANDER-1 CALLE JOSE RAMÓN LÓPEZ DÓRIGA, 6, (SANTANDER)","CALLE JOSE RAMÓN LÓPEZ DÓRIGA, 6, (SANTANDER)",LMXJV 09:00-14:30/15:00-21:00; SD sin horario,Disponibilidad de citas: Alta,Cantabria,,
https://www.citapreviadnie.es/citaPreviaDniExp/ObtenerFechaCitaEspera.action?op=obMeses&equipo=39676A6D2&nombre=U.D.%20DE%20SANTANDER-2&seleccion=hora&espera=1,U.D. DE SANTANDER-2,"U.D. DE SANTANDER-2 AVENIDA DEL DEPORTE, 4, (SANTANDER)","AVENIDA DEL DEPORTE, 4, (SANTANDER)",LMXJV 09:00-14:30; SD sin horario,Disponibilidad de citas: Alta,Cantabria,43.461628250000004,-3.847382451946899
https://www.citapreviadnie.es/citaPreviaDniExp/ObtenerFechaCitaEspera.action?op=obMeses&equipo=39775L6D1&nombre=U.D.%20DE%20TORRELAVEGA&seleccion=hora&espera=1,U.D. DE TORRELAVEGA,"U.D. DE TORRELAVEGA CALLE JOAQUIN HOYOS, 18, (TORRELAVEGA)","CALLE JOAQUIN HOYOS, 18, (TORRELAVEGA)",LMXJV 09:00-14:30; SD sin horario,Disponibilidad de citas: Alta,Cantabria,43.349482,-4.0453789
https://www.citapreviadnie.es/citaPreviaDniExp/ObtenerFechaCitaEspera.action?op=obMeses&equipo=48117L6D1&nombre=U.D.%20DE%20BASAURI&seleccion=hora&espera=1,U.D. DE BASAURI,"U.D. DE BASAURI AVENIDA LEHENDAKARI  AGIRRE  90, (BASAURI)","AVENIDA LEHENDAKARI AGIRRE 90, (BASAURI)",LMXJV 09:00-14:30; SD sin horario,Disponibilidad de citas: Alta,Bizkaia,43.2341651,-2.8739403
https://www.citapreviadnie.es/citaPreviaDniExp/ObtenerFechaCitaEspera.action?op=obMeses&equipo=48131L6D1&nombre=U.D.%20DE%20BARAKALDO&seleccion=hora&espera=1,U.D. DE BARAKALDO,"U.D. DE BARAKALDO CALLE LASESARRE, 16, (BARAKALDO)","CALLE LASESARRE, 16, (BARAKALDO)",LMXJV 09:00-14:30; SD sin horario,Disponibilidad de citas: Alta,Bizkaia,43.30050665,-2.9880451327800586
https://www.citapreviadnie.es/citaPreviaDniExp/ObtenerFechaCitaEspera.action?op=obMeses&equipo=48191A6D1&nombre=U.D.%20DE%20BILBAO&seleccion=hora&espera=1,U.D. DE BILBAO,"U.D. DE BILBAO CALLE ALCALDE FELIPE UHAGÓN, 6, (BILBAO)","CALLE ALCALDE FELIPE UHAGÓN, 6, (BILBAO)",LMXJV 08:30-20:00; SD sin horario,Disponibilidad de citas: Alta,Bizkaia,43.2592701,-2.9391919
https://www.citapreviadnie.es/citaPreviaDniExp/ObtenerFechaCitaEspera.action?op=obMeses&equipo=48441L6D1&nombre=U.D.%20DE%20GETXO&seleccion=hora&espera=1,U.D. DE GETXO,"U.D. DE GETXO Calle arene 6 (plataforma acceso averiada), (GETXO)","Calle arene 6 (plataforma acceso averiada), (GETXO)",LMXJV 09:00-14:30; SD sin horario,Disponibilidad de citas: Media,Bizkaia,,
https://www.citapreviadnie.es/citaPreviaDniExp/ObtenerFechaCitaEspera.action?op=obMeses&equipo=48831L6D1&nombre=U.D.%20DE%20SESTAO-PORTUGALETE&seleccion=hora&espera=1,U.D. DE SESTAO-PORTUGALETE,"U.D. DE SESTAO-PORTUGALETE CALLE CRISTOBAL MELLO, 4, (PORTUGALETE)","CALLE CRISTOBAL MELLO, 4, (PORTUGALETE)",LMXJV 09:00-14:30; SD sin horario,Disponibilidad de citas: Alta,Bizkaia,43.3226451,-3.0191431
https://www.citapreviadnie.es/citaPreviaDniExp/ObtenerFechaCitaEspera.action?op=obMeses&equipo=20349L6D1&nombre=U.D.%20DE%20EIBAR&seleccion=hora&espera=1,U.D. DE EIBAR,"U.D. DE EIBAR PLAZA UNTZAGA Nº 1, (EIBAR)","PLAZA UNTZAGA Nº 1, (EIBAR)",LMXJV 08:30-14:00; SD sin horario,Disponibilidad de citas: Media,Gipuzkoa,43.1838762,-2.4729889199468222
https://www.citapreviadnie.es/citaPreviaDniExp/ObtenerFechaCitaEspera.action?op=obMeses&equipo=20541L6D1&nombre=U.D.%20DE%20IR%C3%9AN&seleccion=hora&espera=1,U.D. DE IRÚN,"U.D. DE IRÚN PLAZA DEL ENSANCHE, 1, (IRUN)","PLAZA DEL ENSANCHE, 1, (IRUN)",LMXJV 08:30-15:00; SD sin horario,Disponibilidad de citas: Media,Gipuzkoa,,
https://www.citapreviadnie.es/citaPreviaDniExp/ObtenerFechaCitaEspera.action?op=obMeses&equipo=20829A6D1&nombre=U.D.%20DE%20DONOSTIA-SAN%20SEBASTI%C3%81N&seleccion=hora&espera=1,U.D. DE DONOSTIA-SAN SEBASTIÁN,"U.D. DE DONOSTIA-SAN SEBASTIÁN PASEO DEL URUMEA 17, (SAN SEBASTIAN)","PASEO DEL URUMEA 17, (SAN SEBASTIAN)",LMXJV 09:00-14:30; SD sin horario,Disponibilidad de citas: Media,Gipuzkoa,43.3082406,-1.9767559
https://www.citapreviadnie.es/citaPreviaDniExp/ObtenerFechaCitaEspera.action?op=obMeses&equipo=01875A6D1&nombre=U.D.%20DE%20VITORIA-GASTEIZ&seleccion=hora&espera=1,U.D. DE VITORIA-GASTEIZ,"U.D. DE VITORIA-GASTEIZ CALLE OLAGUIBEL, 11, (ALAVA)","CALLE OLAGUIBEL, 11, (ALAVA)",LMXJ 08:30-14:30/16:00-18:30; V 08:30-14:30; S 09:00-14:30; D sin hora,Disponibilidad de citas: Alta,Araba-Álava,42.8455346,-2.6632108
https://www.citapreviadnie.es/citaPreviaDniExp/ObtenerFechaCitaEspera.action?op=obMeses&equipo=31604A6D1&nombre=U.D.%20DE%20PAMPLONA&seleccion=hora&espera=1,U.D. DE PAMPLONA,"U.D. DE PAMPLONA CALLE PASCUAL MADOZ, 4, (PAMPLONA)","CALLE PASCUAL MADOZ, 4, (PAMPLONA)",LMXJV 09:00-14:30/15:30-19:30; SD sin horario,Disponibilidad de citas: Baja,Navarra,42.8112335,-1.6322863
https://www.citapreviadnie.es/citaPreviaDniExp/ObtenerFechaCitaEspera.action?op=obMeses&equipo=31694L6D1&nombre=U.D.%20DE%20TUDELA&seleccion=hora&espera=1,U.D. DE TUDELA,"U.D. DE TUDELA CALLE GRISERAS, 2, (TUDELA)","CALLE GRISERAS, 2, (TUDELA)",LMXJV 09:00-14:30; SD sin horario,Disponibilidad de citas: Media,Navarra,42.0543284,-1.5988202
https://www.citapreviadnie.es/citaPreviaDniExp/ObtenerFechaCitaEspera.action?op=obMeses&equipo=25425A6D1&nombre=U.D.%20DE%20LLEIDA&seleccion=hora&espera=1,U.D. DE LLEIDA,"U.D. DE LLEIDA CARRER DE L'ENSENYANÇA Nº2 (ANTIC GOVERN MILITAR, (LLEIDA)","CARRER DE L'ENSENYANÇA Nº2 (ANTIC GOVERN MILITAR, (LLEIDA)",LMXJV 09:00-14:30/15:30-19:30; SD sin horario,Disponibilidad de citas: Alta,Lleida,,
https://www.citapreviadnie.es/citaPreviaDniExp/ObtenerFechaCitaEspera.action?op=obMeses&equipo=25429P6D1&nombre=U.D.%20DE%20LES&seleccion=hora&espera=1,U.D. DE LES,"U.D. DE LES AV SAN JAIME, 58 - VAL D'ARAN, (LES)","AV SAN JAIME, 58 - VAL D'ARAN, (LES)",LMXJV 09:00-14:30; SD sin horario,Disponibilidad de citas: Alta,Lleida,,
https://www.citapreviadnie.es/citaPreviaDniExp/ObtenerFechaCitaEspera.action?op=obMeses&equipo=25721P6D1&nombre=U.D.%20DE%20LA%20SEU%20D%27URGELL&seleccion=hora&espera=1,U.D. DE LA SEU D'URGELL,"U.D. DE LA SEU D'URGELL AVENIDA SALORIA NÚM 100, BAJOS, (LA SEU D'URGELL)","AVENIDA SALORIA NÚM 100, BAJOS, (LA SEU D'URGELL)",LMXJV 09:00-14:30; SD sin horario,Disponibilidad de citas: Alta,Lleida,,
https://www.citapreviadnie.es/citaPreviaDniExp/ObtenerFechaCitaEspera.action?op=obMeses&equipo=17145P6D1&nombre=U.D.%20DE%20CAMPROD%C3%93N&seleccion=hora&espera=1,U.D. DE CAMPRODÓN,"U.D. DE CAMPRODÓN CARRETERA DE MOLLO S/N C-38 KM. 11,5, (CAMPRODON)","CARRETERA DE MOLLO S/N C-38 KM. 11,5, (CAMPRODON)",LMXJV 08:30-14:30; SD sin horario,Disponibilidad de citas: Alta,Girona,,
https://www.citapreviadnie.es/citaPreviaDniExp/ObtenerFechaCitaEspera.action?op=obMeses&equipo=17249L6D1&nombre=U.D.%20DE%20FIGUERES&seleccion=hora&espera=1,U.D. DE FIGUERES,"U.D. DE FIGUERES CALLE PEP VENTURA, 8, (FIGUERES)","CALLE PEP VENTURA, 8, (FIGUERES)",LMXJV 08:30-14:30; SD sin horario,Disponibilidad de citas: Alta,Girona,,
https://www.citapreviadnie.es/citaPreviaDniExp/ObtenerFechaCitaEspera.action?op=obMeses&equipo=17301A6D1&nombre=U.D.%20DE%20GIRONA&seleccion=hora&espera=1,U.D. DE GIRONA,"U.D. DE GIRONA C/ SANT AGUSTÍ, 23, (GIRONA)","C/ SANT AGUSTÍ, 23, (GIRONA)",LMXJV 08:30-14:30; SD sin horario,Disponibilidad de citas: Media,Girona,,
https://www.citapreviadnie.es/citaPreviaDniExp/ObtenerFechaCitaEspera.action?op=obMeses&equipo=17329P6D1&nombre=U.D.%20DE%20LA%20JONQUERA&seleccion=hora&espera=1,U.D. DE LA JONQUERA,"U.D. DE LA JONQUERA CARRER MAJOR Nº136, (LA JONQUERA)","CARRER MAJOR Nº136, (LA JONQUERA)",LMXJV 08:30-14:30; SD sin horario,Disponibilidad de citas: Alta,Girona,,
https://www.citapreviadnie.es/citaPreviaDniExp/ObtenerFechaCitaEspera.action?op=obMeses&equipo=17365L6D1&nombre=U.D.%20DE%20LLORET%20DE%20MAR&seleccion=hora&espera=1,U.D. DE LLORET DE MAR,"U.D. DE LLORET DE MAR CARRER VERGE DE LORETO, 51, (LLORET DE MAR)","CARRER VERGE DE LORETO, 51, (LLORET DE MAR)",LMXJ 08:30-14:30; V 09:00-14:30; SD sin horario,Disponibilidad de citas: Media,Girona,,
https://www.citapreviadnie.es/citaPreviaDniExp/ObtenerFechaCitaEspera.action?op=obMeses&equipo=17517P6D1&nombre=U.D.%20DE%20PORTBOU&seleccion=hora&espera=1,U.D. DE PORTBOU,"U.D. DE PORTBOU ESTACION RENFE S/N, (PORTBOU)","ESTACION RENFE S/N, (PORTBOU)",LMXJV 09:00-14:30; SD sin horario,Disponibilidad de citas: Alta,Girona,,
https://www.citapreviadnie.es/citaPreviaDniExp/ObtenerFechaCitaEspera.action?op=obMeses&equipo=17529P6D1&nombre=U.D.%20DE%20PUIGCERD%C3%80&seleccion=hora&espera=1,U.D. DE PUIGCERDÀ,"U.D. DE PUIGCERDÀ AVENIDA FRANCIA nº2, (PUIGCERDÀ)","AVENIDA FRANCIA nº2, (PUIGCERDÀ)",LMXJV 08:00-14:30; SD sin horario,Disponibilidad de citas: Alta,Girona,,
https://www.citapreviadnie.es/citaPreviaDniExp/ObtenerFechaCitaEspera.action?op=obMeses&equipo=17665L6D1&nombre=U.D.%20DE%20SANT%20FELIU%20DE%20GU%C3%8DXOLS&seleccion=hora&espera=1,U.D. DE SANT FELIU DE GUÍXOLS,"U.D. DE SANT FELIU DE GUÍXOLS CALLE ORTIZ DE LA VEGA, 6-8, (SANT FELIU DE GUÍXOLS)","CALLE ORTIZ DE LA VEGA, 6-8, (SANT FELIU DE GUÍXOLS)",LMXJV 08:30-14:30; SD sin horario,Disponibilidad de citas: Alta,Girona,,
https://www.citapreviadnie.es/citaPreviaDniExp/ObtenerFechaCitaEspera.action?op=obMeses&equipo=08043L6D1&nombre=U.D.%20DE%20BADALONA&seleccion=hora&espera=1,U.D. DE BADALONA,"U.D. DE BADALONA AVENIDA DELS VENTS, 9-13, (BADALONA)","AVENIDA DELS VENTS, 9-13, (BADALONA)",LMXJV 09:00-14:30; SD sin horario,Disponibilidad de citas: Media,Barcelona,,
https://www.citapreviadnie.es/citaPreviaDniExp/ObtenerFechaCitaEspera.action?op=obMeses&equipo=0805546D1&nombre=U.D.%20DE%20BARCELONA-ZONAL%204%20(NOU%20BARRIS)&seleccion=hora&espera=1,U.D. DE BARCELONA-ZONAL 4 (NOU BARRIS),"U.D. DE BARCELONA-ZONAL 4 (NOU BARRIS) CALLE AIGUABLAVA, 55, (BARCELONA)","CALLE AIGUABLAVA, 55, (BARCELONA)",LMXJV 09:00-14:30; SD sin horario,Disponibilidad de citas: Baja,Barcelona,41.454978,2.1870491
https://www.citapreviadnie.es/citaPreviaDniExp/ObtenerFechaCitaEspera.action?op=obMeses&equipo=08055A6D5&nombre=U.D.%20DE%20BARCELONA%20(PLA%C3%87A%20D%27ESPANYA)&seleccion=hora&espera=1,U.D. DE BARCELONA (PLAÇA D'ESPANYA),"U.D. DE BARCELONA (PLAÇA D'ESPANYA) PLAZA ESPAÑA, 1, (BARCELONA)","PLAZA ESPAÑA, 1, (BARCELONA)",LMXJV 09:00-14:30; SD sin horario,Disponibilidad de citas: Media,Barcelona,41.375154,2.1485787
https://www.citapreviadnie.es/citaPreviaDniExp/ObtenerFechaCitaEspera.action?op=obMeses&equipo=08055D6D1&nombre=U.D.%20DE%20BARCELONA-RAMBLA%20DE%20GUIP%C3%9ASCOA&seleccion=hora&espera=1,U.D. DE BARCELONA-RAMBLA DE GUIPÚSCOA,"U.D. DE BARCELONA-RAMBLA DE GUIPÚSCOA RAMBLA DE GUIPÚSCOA, 74, (BARCELONA)","RAMBLA DE GUIPÚSCOA, 74, (BARCELONA)",LMXJV 09:00-14:30/15:30-21:00; S 09:00-14:00; D sin horario,Disponibilidad de citas: Media,Barcelona,41.417244249999996,2.1992079542330307
https://www.citapreviadnie.es/citaPreviaDniExp/ObtenerFechaCitaEspera.action?op=obMeses&equipo=08055G6D1&nombre=U.D.%20DE%20BARCELONA-SANT%20ANTONI%20MARIA%20CLARET&seleccion=hora&espera=1,U.D. DE BARCELONA-SANT ANTONI MARIA CLARET,"U.D. DE BARCELONA-SANT ANTONI MARIA CLARET C/S.ANTONI Mª CLARET,276, (BARCELONA)","C/S.ANTONI Mª CLARET,276, (BARCELONA)",LMXJV 09:00-14:30; SD sin horario,Disponibilidad de citas: Baja,Barcelona,,
https://www.citapreviadnie.es/citaPreviaDniExp/ObtenerFechaCitaEspera.action?op=obMeses&equipo=08055L6D1&nombre=U.D.%20DE%20BARCELONA-TRAFALGAR&seleccion=hora&espera=1,U.D. DE BARCELONA-TRAFALGAR,"U.D. DE BARCELONA-TRAFALGAR CALLE TRAFALGAR, 4      METRO URQUINAONA, (BARCELONA)","CALLE TRAFALGAR, 4 METRO URQUINAONA, (BARCELONA)",LMXJV 09:00-14:30/15:30-21:00; S 09:00-14:00; D sin horario,Disponibilidad de citas: Media,Barcelona,,
https://www.citapreviadnie.es/citaPreviaDniExp/ObtenerFechaCitaEspera.action?op=obMeses&equipo=08055M6D1&nombre=U.D.%20DE%20BARCELONA-BALMES%20II&seleccion=hora&espera=1,U.D. DE BARCELONA-BALMES II,"U.D. DE BARCELONA-BALMES II CALLE BALMES 192, (BARCELONA)","CALLE BALMES 192, (BARCELONA)",LMXJV 09:00-14:30; SD sin horario,Disponibilidad de citas: Media,Barcelona,41.2197004,1.7222467
https://www.citapreviadnie.es/citaPreviaDniExp/ObtenerFechaCitaEspera.action?op=obMeses&equipo=08055V6D1&nombre=U.D.%20DE%20BARCELONA-SANT%20ANDREU&seleccion=hora&espera=1,U.D. DE BARCELONA-SANT ANDREU,"U.D. DE BARCELONA-SANT ANDREU CALLE GRAN DE SANT ANDREU, 399-401, (BARCELONA)","CALLE GRAN DE SANT ANDREU, 399-401, (BARCELONA)",LMXJV 09:00-14:30; SD sin horario,Disponibilidad de citas: Media,Barcelona,,
https://www.citapreviadnie.es/citaPreviaDniExp/ObtenerFechaCitaEspera.action?op=obMeses&equipo=08148L6D1&nombre=U.D.%20DE%20CASTELLDEFELS&seleccion=hora&espera=1,U.D. DE CASTELLDEFELS,"U.D. DE CASTELLDEFELS PLAÇA ESPERANTO, Nº. 4 C, (CASTELLDEFELS)","PLAÇA ESPERANTO, Nº. 4 C, (CASTELLDEFELS)",LMXJV 09:00-14:30; SD sin horario,Disponibilidad de citas: Media,Barcelona,,
https://www.citapreviadnie.es/citaPreviaDniExp/ObtenerFechaCitaEspera.action?op=obMeses&equipo=08202L6D1&nombre=U.D.%20DE%20CERDANYOLA%20DEL%20VALL%C3%88S&seleccion=hora&espera=1,U.D. DE CERDANYOLA DEL VALLÈS,"U.D. DE CERDANYOLA DEL VALLÈS CALLE MARE DE DÉU DE LES FEIXES, nº 4, (CERDANYOLA)","CALLE MARE DE DÉU DE LES FEIXES, nº 4, (CERDANYOLA)",LMXJV 09:00-14:30; SD sin horario,Disponibilidad de citas: Media,Barcelona,,
https://www.citapreviadnie.es/citaPreviaDniExp/ObtenerFechaCitaEspera.action?op=obMeses&equipo=08220L6D1&nombre=U.D.%20DE%20CORNELL%C3%80%20DE%20LLOBREGAT&seleccion=hora&espera=1,U.D. DE CORNELLÀ DE LLOBREGAT,"U.D. DE CORNELLÀ DE LLOBREGAT AVENIDA SANT ILDEFONS, S/N, (CORNELLÁ)","AVENIDA SANT ILDEFONS, S/N, (CORNELLÁ)",LMXJ 09:00-14:30/15:00-20:00; V 09:00-14:30; SD sin horario,Disponibilidad de citas: Media,Barcelona,41.3633511,2.0832609
https://www.citapreviadnie.es/citaPreviaDniExp/ObtenerFechaCitaEspera.action?op=obMeses&equipo=08289L6D1&nombre=U.D.%20DE%20GRANOLLERS&seleccion=hora&espera=1,U.D. DE GRANOLLERS,"U.D. DE GRANOLLERS CALLE MIQUEL RICOMÀ, 65, (GRANOLLERS)","CALLE MIQUEL RICOMÀ, 65, (GRANOLLERS)",LMXJV 09:00-14:30/16:00-19:00; SD sin horario,Disponibilidad de citas: Baja,Barcelona,,
https://www.citapreviadnie.es/citaPreviaDniExp/ObtenerFechaCitaEspera.action?op=obMeses&equipo=08304L6D1&nombre=U.D.%20DE%20L%27HOSPITALET%20DE%20LLOBREGAT&seleccion=hora&espera=1,U.D. DE L'HOSPITALET DE LLOBREGAT,"U.D. DE L'HOSPITALET DE LLOBREGAT RAMBLA JUST OLIVERAS, 43, (L'HOSPITALET DE LLOBREGAT)","RAMBLA JUST OLIVERAS, 43, (L'HOSPITALET DE LLOBREGAT)",LMXJ 09:00-14:30/16:00-20:00; V 09:00-14:30; SD sin horario,Disponibilidad de citas: Media,Barcelona,41.3640335,2.0998625
https://www.citapreviadnie.es/citaPreviaDniExp/ObtenerFechaCitaEspera.action?op=obMeses&equipo=08307L6D1&nombre=U.D.%20DE%20IGUALADA&seleccion=hora&espera=1,U.D. DE IGUALADA,"U.D. DE IGUALADA CALLE PRAT DE LA RIBA, 13, (IGUALADA)","CALLE PRAT DE LA RIBA, 13, (IGUALADA)",LMXJV 09:00-14:30; SD sin horario,Disponibilidad de citas: Media,Barcelona,,
https://www.citapreviadnie.es/citaPreviaDniExp/ObtenerFechaCitaEspera.action?op=obMeses&equipo=08340L6D1&nombre=U.D.%20DE%20MANRESA&seleccion=hora&espera=1,U.D. DE MANRESA,"U.D. DE MANRESA CALLE SOLER I MARCH, 5, (MANRESA)","CALLE SOLER I MARCH, 5, (MANRESA)",LMXJV 09:00-14:30; SD sin horario,Disponibilidad de citas: Baja,Barcelona,,
https://www.citapreviadnie.es/citaPreviaDniExp/ObtenerFechaCitaEspera.action?op=obMeses&equipo=08364L6D1&nombre=U.D.%20DE%20MATAR%C3%93&seleccion=hora&espera=1,U.D. DE MATARÓ,"U.D. DE MATARÓ AVENIDA DE LA GATASSA, 15, (MATARÓ)","AVENIDA DE LA GATASSA, 15, (MATARÓ)",LMXJV 09:00-14:30; SD sin horario,Disponibilidad de citas: Baja,Barcelona,,
https://www.citapreviadnie.es/citaPreviaDniExp/ObtenerFechaCitaEspera.action?op=obMeses&equipo=08388L6D1&nombre=U.D.%20DE%20MONTCADA%20I%20REIXAC&seleccion=hora&espera=1,U.D. DE MONTCADA I REIXAC,"U.D. DE MONTCADA I REIXAC CALLE MAJOR, 38, (MONTCADA I REIXAC)","CALLE MAJOR, 38, (MONTCADA I REIXAC)",LMXJV 09:00-14:30; SD sin horario,Disponibilidad de citas: Media,Barcelona,,
https://www.citapreviadnie.es/citaPreviaDniExp/ObtenerFechaCitaEspera.action?op=obMeses&equipo=08508L6D1&nombre=U.D.%20DE%20EL%20PRAT%20DE%20LLOBREGAT&seleccion=hora&espera=1,U.D. DE EL PRAT DE LLOBREGAT,"U.D. DE EL PRAT DE LLOBREGAT CARRER CENTRE, 4, (EL PRAT DE LLOBREGAT)","CARRER CENTRE, 4, (EL PRAT DE LLOBREGAT)",LMXJV 09:00-14:30; SD sin horario,Disponibilidad de citas: Baja,Barcelona,41.3299329,2.0948219
https://www.citapreviadnie.es/citaPreviaDniExp/ObtenerFechaCitaEspera.action?op=obMeses&equipo=08550L6D1&nombre=U.D.%20DE%20RUB%C3%8D&seleccion=hora&espera=1,U.D. DE RUBÍ,"U.D. DE RUBÍ CALLE TERRASSA, 16-18, (RUBI)","CALLE TERRASSA, 16-18, (RUBI)",LMXJV 09:00-14:30; SD sin horario,Disponibilidad de citas: Media,Barcelona,,
https://www.citapreviadnie.es/citaPreviaDniExp/ObtenerFechaCitaEspera.action?op=obMeses&equipo=08601L6D1&nombre=U.D.%20DE%20SABADELL&seleccion=hora&espera=1,U.D. DE SABADELL,"U.D. DE SABADELL CALLE BATLLEVELL, 115, (SABADELL)","CALLE BATLLEVELL, 115, (SABADELL)",LMXJ 09:00-14:30/15:30-21:00; V 09:00-14:30; SD sin horario,Disponibilidad de citas: Media,Barcelona,41.5584131,2.1062453
https://www.citapreviadnie.es/citaPreviaDniExp/ObtenerFechaCitaEspera.action?op=obMeses&equipo=08673L6D1&nombre=U.D.%20DE%20SANT%20ADRI%C3%80%20DE%20BES%C3%92S&seleccion=hora&espera=1,U.D. DE SANT ADRIÀ DE BESÒS,"U.D. DE SANT ADRIÀ DE BESÒS AVENIDA JOAN XXIII, 2, (SANT ADRIÁ DE BESOS)","AVENIDA JOAN XXIII, 2, (SANT ADRIÁ DE BESOS)",LMXJV 09:00-14:30; SD sin horario,Disponibilidad de citas: Media,Barcelona,,
https://www.citapreviadnie.es/citaPreviaDniExp/ObtenerFechaCitaEspera.action?op=obMeses&equipo=08679L6D1&nombre=U.D.%20DE%20SANT%20BOI%20DE%20LLOBREGAT&seleccion=hora&espera=1,U.D. DE SANT BOI DE LLOBREGAT,"U.D. DE SANT BOI DE LLOBREGAT MERCAT LA MUNTANYETA-C/RIERA BASTÉ 43, (SANT BOI DE LLOBREGAT)","MERCAT LA MUNTANYETA-C/RIERA BASTÉ 43, (SANT BOI DE LLOBREGAT)",LMXJV 09:00-14:30; SD sin horario,Disponibilidad de citas: Media,Barcelona,,
https://www.citapreviadnie.es/citaPreviaDniExp/ObtenerFechaCitaEspera.action?op=obMeses&equipo=08685L6D1&nombre=U.D.%20DE%20SANT%20CUGAT%20DEL%20VALL%C3%88S&seleccion=hora&espera=1,U.D. DE SANT CUGAT DEL VALLÈS,"U.D. DE SANT CUGAT DEL VALLÈS CALLE VALLÈS, 1-3, (SANT CUGAT DEL VALLÈS)","CALLE VALLÈS, 1-3, (SANT CUGAT DEL VALLÈS)",LMXJV 09:00-14:30; SD sin horario,Disponibilidad de citas: Media,Barcelona,,
https://www.citapreviadnie.es/citaPreviaDniExp/ObtenerFechaCitaEspera.action?op=obMeses&equipo=08688L6D1&nombre=U.D.%20DE%20SANT%20FELIU%20DE%20LLOBREGAT&seleccion=hora&espera=1,U.D. DE SANT FELIU DE LLOBREGAT,"U.D. DE SANT FELIU DE LLOBREGAT CALLE CARRERETES, 9-11, (SANT FELIU DE LLOBREGAT)","CALLE CARRERETES, 9-11, (SANT FELIU DE LLOBREGAT)",LMXJV 09:00-14:30; SD sin horario,Disponibilidad de citas: Media,Barcelona,,
https://www.citapreviadnie.es/citaPreviaDniExp/ObtenerFechaCitaEspera.action?op=obMeses&equipo=08778L6D1&nombre=U.D.%20DE%20SANTA%20COLOMA%20DE%20GRAMANET&seleccion=hora&espera=1,U.D. DE SANTA COLOMA DE GRAMANET,"U.D. DE SANTA COLOMA DE GRAMANET CALLE IRLANDA, 67, (SANTA COLOMA DE GRAMANET)","CALLE IRLANDA, 67, (SANTA COLOMA DE GRAMANET)",LMXJV 09:00-14:30; SD sin horario,Disponibilidad de citas: Baja,Barcelona,,
https://www.citapreviadnie.es/citaPreviaDniExp/ObtenerFechaCitaEspera.action?op=obMeses&equipo=08832L6D1&nombre=U.D.%20DE%20TERRASSA&seleccion=hora&espera=1,U.D. DE TERRASSA,"U.D. DE TERRASSA CALLE BALDRICH, 9-13, (TERRASSA)","CALLE BALDRICH, 9-13, (TERRASSA)",LMXJV 09:00-14:30; SD sin horario,Disponibilidad de citas: Baja,Barcelona,,
https://www.citapreviadnie.es/citaPreviaDniExp/ObtenerFechaCitaEspera.action?op=obMeses&equipo=08883L6D1&nombre=U.D.%20DE%20VIC&seleccion=hora&espera=1,U.D. DE VIC,"U.D. DE VIC CALLE BISBE MORGADES, 4, (VIC)","CALLE BISBE MORGADES, 4, (VIC)",LMXJV 09:00-14:30; SD sin horario,Disponibilidad de citas: Baja,Barcelona,,
https://www.citapreviadnie.es/citaPreviaDniExp/ObtenerFechaCitaEspera.action?op=obMeses&equipo=08892L6D1&nombre=U.D.%20DE%20VILADECANS&seleccion=hora&espera=1,U.D. DE VILADECANS,"U.D. DE VILADECANS AVENIDA BALLESTER, 2, (VILADECANS)","AVENIDA BALLESTER, 2, (VILADECANS)",LMXJV 09:00-14:30; SD sin horario,Disponibilidad de citas: Media,Barcelona,,
https://www.citapreviadnie.es/citaPreviaDniExp/ObtenerFechaCitaEspera.action?op=obMeses&equipo=08895L6D1&nombre=U.D.%20DE%20VILAFRANCA%20DEL%20PENEDES&seleccion=hora&espera=1,U.D. DE VILAFRANCA DEL PENEDES,"U.D. DE VILAFRANCA DEL PENEDES AVINGUDA RONDA DE MAR, 109-117, (VILAFRANCA DEL PENEDÈS)","AVINGUDA RONDA DE MAR, 109-117, (VILAFRANCA DEL PENEDÈS)",LMXJV 09:00-14:30; SD sin horario,Disponibilidad de citas: Media,Barcelona,,
https://www.citapreviadnie.es/citaPreviaDniExp/ObtenerFechaCitaEspera.action?op=obMeses&equipo=08901L6D1&nombre=U.D.%20DE%20VILANOVA%20I%20LA%20GELTR%C3%9A&seleccion=hora&espera=1,U.D. DE VILANOVA I LA GELTRÚ,"U.D. DE VILANOVA I LA GELTRÚ CALLE VAPOR, 19, (VILANOVA I LA GELTRU)","CALLE VAPOR, 19, (VILANOVA I LA GELTRU)",LMXJV 09:00-14:30; SD sin horario,Disponibilidad de citas: Alta,Barcelona,41.2245998,1.7235989
https://www.citapreviadnie.es/citaPreviaDniExp/ObtenerFechaCitaEspera.action?op=obMeses&equipo=43611L6D1&nombre=U.D.%20DE%20REUS&seleccion=hora&espera=1,U.D. DE REUS,"U.D. DE REUS CALLE ANTONI GAUDI 9, (REUS)","CALLE ANTONI GAUDI 9, (REUS)",LMXJV 09:00-14:30; SD sin horario,Disponibilidad de citas: Alta,Tarragona,,
https://www.citapreviadnie.es/citaPreviaDniExp/ObtenerFechaCitaEspera.action?op=obMeses&equipo=43741A6D1&nombre=U.D.%20DE%20TARRAGONA&seleccion=hora&espera=1,U.D. DE TARRAGONA,"U.D. DE TARRAGONA CALLE VIDAL Y BARRAQUER, 20, (TARRAGONA)","CALLE VIDAL Y BARRAQUER, 20, (TARRAGONA)",LMXJV 09:00-14:30/16:00-21:00; SD sin horario,Disponibilidad de citas: Alta,Tarragona,,
https://www.citapreviadnie.es/citaPreviaDniExp/ObtenerFechaCitaEspera.action?op=obMeses&equipo=43776L6D1&nombre=U.D.%20DE%20TORTOSA&seleccion=hora&espera=1,U.D. DE TORTOSA,"U.D. DE TORTOSA PASSEIG DE RIBERA, 21, (TORTOSA)","PASSEIG DE RIBERA, 21, (TORTOSA)",LMXJV 09:00-14:30/16:00-19:00; SD sin horario,Disponibilidad de citas: Alta,Tarragona,40.8037413,0.5151233
https://www.citapreviadnie.es/citaPreviaDniExp/ObtenerFechaCitaEspera.action?op=obMeses&equipo=26181L6D1&nombre=U.D.%20DE%20CALAHORRA&seleccion=hora&espera=1,U.D. DE CALAHORRA,"U.D. DE CALAHORRA CALLE JULIO LONGINOS 2, (CALAHORRA)","CALLE JULIO LONGINOS 2, (CALAHORRA)",LMXJV 09:00-14:30; SD sin horario,Disponibilidad de citas: Baja,La Rioja,42.3079857,-1.9683865
https://www.citapreviadnie.es/citaPreviaDniExp/ObtenerFechaCitaEspera.action?op=obMeses&equipo=26441A6D1&nombre=U.D.%20DE%20LOGRO%C3%91O&seleccion=hora&espera=1,U.D. DE LOGROÑO,"U.D. DE LOGROÑO CALLE SERRADERO, 26, (LOGROÑO)","CALLE SERRADERO, 26, (LOGROÑO)",LMXJV 09:00-14:30; SD sin horario,Disponibilidad de citas: Alta,La Rioja,42.4505335,-2.4614231
https://www.citapreviadnie.es/citaPreviaDniExp/ObtenerFechaCitaEspera.action?op=obMeses&equipo=24029L6D1&nombre=U.D.%20DE%20ASTORGA&seleccion=hora&espera=1,U.D. DE ASTORGA,"U.D. DE ASTORGA PLAZA DE LOS MARQUESES, S/N, (ASTORGA)","PLAZA DE LOS MARQUESES, S/N, (ASTORGA)",LMXJV 09:00-14:30; SD sin horario,Disponibilidad de citas: Alta,León,42.4553941,-6.0586448
https://www.citapreviadnie.es/citaPreviaDniExp/ObtenerFechaCitaEspera.action?op=obMeses&equipo=24337A6D1&nombre=U.D.%20DE%20LE%C3%93N&seleccion=hora&espera=1,U.D. DE LEÓN,"U.D. DE LEÓN CALLE DE LA GUARDIA CIVIL, 6, (ANTES C/CAPITAN C, (LEON)","CALLE DE LA GUARDIA CIVIL, 6, (ANTES C/CAPITAN C, (LEON)",LMXJ 09:00-19:00; V 09:00-14:30; SD sin horario,Disponibilidad de citas: Alta,León,,
https://www.citapreviadnie.es/citaPreviaDniExp/ObtenerFechaCitaEspera.action?op=obMeses&equipo=24441L6D1&nombre=U.D.%20DE%20PONFERRADA&seleccion=hora&espera=1,U.D. DE PONFERRADA,"U.D. DE PONFERRADA CALLE RíO OZA, S/N, (PONFERRADA)","CALLE RíO OZA, S/N, (PONFERRADA)",LMXJV 09:00-14:30; SD sin horario,Disponibilidad de citas: Alta,León,,
https://www.citapreviadnie.es/citaPreviaDniExp/ObtenerFechaCitaEspera.action?op=obMeses&equipo=24517L6D1&nombre=U.D.%20DE%20SAN%20ANDR%C3%89S%20DEL%20RABANEDO&seleccion=hora&espera=1,U.D. DE SAN ANDRÉS DEL RABANEDO,"U.D. DE SAN ANDRÉS DEL RABANEDO GTA DONANTES SANGRE Nº1 TROBAJO DEL CAMINO, (SAN ANDRES DEL RABANEDO)","GTA DONANTES SANGRE Nº1 TROBAJO DEL CAMINO, (SAN ANDRES DEL RABANEDO)",LMXJV 09:00-14:30; SD sin horario,Disponibilidad de citas: Alta,León,42.601800350000005,-5.596490041242536
https://www.citapreviadnie.es/citaPreviaDniExp/ObtenerFechaCitaEspera.action?op=obMeses&equipo=09027L6D1&nombre=U.D.%20DE%20ARANDA%20DE%20DUERO&seleccion=hora&espera=1,U.D. DE ARANDA DE DUERO,"U.D. DE ARANDA DE DUERO SAN FRANCISCO, 92, (ARANDA DE DUERO)","SAN FRANCISCO, 92, (ARANDA DE DUERO)",LMXJV 09:00-14:30; SD sin horario,Disponibilidad de citas: Alta,Burgos,41.6757593,-3.6855872
https://www.citapreviadnie.es/citaPreviaDniExp/ObtenerFechaCitaEspera.action?op=obMeses&equipo=09097A6D1&nombre=U.D.%20DE%20BURGOS&seleccion=hora&espera=1,U.D. DE BURGOS,"U.D. DE BURGOS AVENIDA CASTILLA Y LEON, 3, (BURGOS)","AVENIDA CASTILLA Y LEON, 3, (BURGOS)",LMXJ 09:00-17:00; V 09:00-14:30; SD sin horario,Disponibilidad de citas: Alta,Burgos,42.3469097,-3.6869791
https://www.citapreviadnie.es/citaPreviaDniExp/ObtenerFechaCitaEspera.action?op=obMeses&equipo=09349L6D1&nombre=U.D.%20DE%20MIRANDA%20DE%20EBRO&seleccion=hora&espera=1,U.D. DE MIRANDA DE EBRO,"U.D. DE MIRANDA DE EBRO ANTONIO CABEZÓN N.14, (MIRANDA DE EBRO)","ANTONIO CABEZÓN N.14, (MIRANDA DE EBRO)",LMXJV 09:00-14:30; SD sin horario,Disponibilidad de citas: Alta,Burgos,42.6825211,-2.9390898
https://www.citapreviadnie.es/citaPreviaDniExp/ObtenerFechaCitaEspera.action?op=obMeses&equipo=34466A6D1&nombre=U.D.%20DE%20PALENCIA&seleccion=hora&espera=1,U.D. DE PALENCIA,"U.D. DE PALENCIA AVENIDA DE SIMON NIETO, 8, (PALENCIA)","AVENIDA DE SIMON NIETO, 8, (PALENCIA)",LMXJ 09:00-14:30/16:00-19:00; V 09:00-14:30; SD sin horario,Disponibilidad de citas: Alta,Palencia,42.015752,-4.540071349927053
https://www.citapreviadnie.es/citaPreviaDniExp/ObtenerFechaCitaEspera.action?op=obMeses&equipo=49005P6D1&nombre=U.D.%20DE%20ALCA%C3%91ICES&seleccion=hora&espera=1,U.D. DE ALCAÑICES,"U.D. DE ALCAÑICES CALLE HERRADURA 39, (ALCAÑICES)","CALLE HERRADURA 39, (ALCAÑICES)",LMXJV 09:00-14:30; SD sin horario,Disponibilidad de citas: Alta,Zamora,41.7008622,-6.3525974
https://www.citapreviadnie.es/citaPreviaDniExp/ObtenerFechaCitaEspera.action?op=obMeses&equipo=49997A6D1&nombre=U.D.%20DE%20ZAMORA&seleccion=hora&espera=1,U.D. DE ZAMORA,"U.D. DE ZAMORA AVENIDA REQUEJO, 12, (ZAMORA)","AVENIDA REQUEJO, 12, (ZAMORA)",LMXJ 09:00-14:30/15:00-17:00; V 09:00-14:30; SD sin horario,Disponibilidad de citas: Alta,Zamora,41.5109207,-5.7354144
https://www.citapreviadnie.es/citaPreviaDniExp/ObtenerFechaCitaEspera.action?op=obMeses&equipo=42726A6D1&nombre=U.D.%20DE%20SORIA&seleccion=hora&espera=1,U.D. DE SORIA,"U.D. DE SORIA CALLE NICOLÁS RABAL, 9, (SORIA)","CALLE NICOLÁS RABAL, 9, (SORIA)",LMXJ 09:00-17:00; V 09:00-14:30; SD sin horario,Disponibilidad de citas: Alta,Soria,41.7623704,-2.4753542
https://www.citapreviadnie.es/citaPreviaDniExp/ObtenerFechaCitaEspera.action?op=obMeses&equipo=47333L6D1&nombre=U.D.%20DE%20MEDINA%20DEL%20CAMPO&seleccion=hora&espera=1,U.D. DE MEDINA DEL CAMPO,"U.D. DE MEDINA DEL CAMPO CALLE VALLADOLID, 30-32, (MEDINA DEL CAMPO)","CALLE VALLADOLID, 30-32, (MEDINA DEL CAMPO)",LMXJV 09:00-14:30; SD sin horario,Disponibilidad de citas: Alta,Valladolid,41.3113918,-4.9134199
https://www.citapreviadnie.es/citaPreviaDniExp/ObtenerFechaCitaEspera.action?op=obMeses&equipo=47709A6D1&nombre=U.D.%20DE%20VALLADOLID%20(FRAY%20LUIS%20DE%20GRANADA)&seleccion=hora&espera=1,U.D. DE VALLADOLID (FRAY LUIS DE GRANADA),"U.D. DE VALLADOLID (FRAY LUIS DE GRANADA) FRAY LUIS DE GRANADA, 5, (VALLADOLID)","FRAY LUIS DE GRANADA, 5, (VALLADOLID)",LMXJ 09:00-20:00; V 09:00-14:30/16:00-20:00; SD sin horario,Disponibilidad de citas: Alta,Valladolid,41.656481,-4.7237408
https://www.citapreviadnie.es/citaPreviaDniExp/ObtenerFechaCitaEspera.action?op=obMeses&equipo=47709C6D1&nombre=U.D.%20DE%20VALLADOLID-DELICIAS&seleccion=hora&espera=1,U.D. DE VALLADOLID-DELICIAS,"U.D. DE VALLADOLID-DELICIAS CALLE GERONA, S/N, (VALLADOLID)","CALLE GERONA, S/N, (VALLADOLID)",LMXJV 09:00-14:30; SD sin horario,Disponibilidad de citas: Alta,Valladolid,41.6301654,-4.7237813
https://www.citapreviadnie.es/citaPreviaDniExp/ObtenerFechaCitaEspera.action?op=obMeses&equipo=47709R6D1&nombre=U.D.%20DE%20VALLADOLID-PARQUESOL&seleccion=hora&espera=1,U.D. DE VALLADOLID-PARQUESOL,"U.D. DE VALLADOLID-PARQUESOL C/ ENRIQUE CUBERO SN, (VALLADOLID)","C/ ENRIQUE CUBERO SN, (VALLADOLID)",LMXJV 09:00-14:30; SD sin horario,Disponibilidad de citas: Alta,Valladolid,,
https://www.citapreviadnie.es/citaPreviaDniExp/ObtenerFechaCitaEspera.action?op=obMeses&equipo=40669A6D1&nombre=U.D.%20DE%20SEGOVIA&seleccion=hora&espera=1,U.D. DE SEGOVIA,"U.D. DE SEGOVIA PASEO EZEQUIEL GONZALEZ, 22, (SEGOVIA)","PASEO EZEQUIEL GONZALEZ, 22, (SEGOVIA)",LMXJV 09:00-14:30; SD sin horario,Disponibilidad de citas: Alta,Segovia,40.9428552,-4.1190618
https://www.citapreviadnie.es/citaPreviaDniExp/ObtenerFechaCitaEspera.action?op=obMeses&equipo=37087L6D1&nombre=U.D.%20DE%20B%C3%89JAR&seleccion=hora&espera=1,U.D. DE BÉJAR,"U.D. DE BÉJAR CALLE 28 DE SEPTIEMBRE, 26, (BÉJAR)","CALLE 28 DE SEPTIEMBRE, 26, (BÉJAR)",LMXJV 09:00-14:30; SD sin horario,Disponibilidad de citas: Alta,Salamanca,40.3867449,-5.7638513
https://www.citapreviadnie.es/citaPreviaDniExp/ObtenerFechaCitaEspera.action?op=obMeses&equipo=37251P6D1&nombre=U.D.%20DE%20FUENTES%20DE%20O%C3%91ORO&seleccion=hora&espera=1,U.D. DE FUENTES DE OÑORO,"U.D. DE FUENTES DE OÑORO PLAZA EUROPA Nº 5, (FUENTES DE OÑORO)","PLAZA EUROPA Nº 5, (FUENTES DE OÑORO)",LMXJV 09:00-14:30; SD sin horario,Disponibilidad de citas: Alta,Salamanca,40.6057273,-6.8245465
https://www.citapreviadnie.es/citaPreviaDniExp/ObtenerFechaCitaEspera.action?op=obMeses&equipo=37507A6D1&nombre=U.D.%20DE%20SALAMANCA&seleccion=hora&espera=1,U.D. DE SALAMANCA,"U.D. DE SALAMANCA CALLE JARDINES S/N, (SALAMANCA)","CALLE JARDINES S/N, (SALAMANCA)",LMXJ 09:00-20:00; V 09:00-14:30; SD sin horario,Disponibilidad de citas: Alta,Salamanca,40.6569966,-5.7842209
https://www.citapreviadnie.es/citaPreviaDniExp/ObtenerFechaCitaEspera.action?op=obMeses&equipo=05053A6D1&nombre=U.D.%20DE%20%C3%81VILA&seleccion=hora&espera=1,U.D. DE ÁVILA,"U.D. DE ÁVILA PASEO DE SAN ROQUE Número 34, (ÁVILA)","PASEO DE SAN ROQUE Número 34, (ÁVILA)",LMXJ 09:00-19:00; V 09:00-14:30; SD sin horario,Disponibilidad de citas: Alta,Ávila,,
https://www.citapreviadnie.es/citaPreviaDniExp/ObtenerFechaCitaEspera.action?op=obMeses&equipo=00PAAAAD2&nombre=U.D.%20DE%20DD-MADRID-SAN%20FELIPE&seleccion=hora&espera=1,U.D. DE DD-MADRID-SAN FELIPE,"U.D. DE DD-MADRID-SAN FELIPE CALLE SAN FELIPE 7, (MADRID)","CALLE SAN FELIPE 7, (MADRID)",LMXJ 09:00-20:00; V 09:00-14:30; SD sin horario,Disponibilidad de citas: Alta,Madrid,40.3573719,-3.7813284
https://www.citapreviadnie.es/citaPreviaDniExp/ObtenerFechaCitaEspera.action?op=obMeses&equipo=28021L6D1&nombre=U.D.%20DE%20ALCALA%20DE%20HENARES&seleccion=hora&espera=1,U.D. DE ALCALA DE HENARES,"U.D. DE ALCALA DE HENARES AVENIDA DE MECO S/N, (ALCALA DE HENARES)","AVENIDA DE MECO S/N, (ALCALA DE HENARES)",LMXJV 09:00-14:30; SD sin horario,Disponibilidad de citas: Alta,Madrid,40.4931967,-3.3567835
https://www.citapreviadnie.es/citaPreviaDniExp/ObtenerFechaCitaEspera.action?op=obMeses&equipo=28026L6D1&nombre=U.D.%20DE%20ALCOBENDAS&seleccion=hora&espera=1,U.D. DE ALCOBENDAS,"U.D. DE ALCOBENDAS AVENIDA DE ESPAñA, 52, (ALCOBENDAS)","AVENIDA DE ESPAñA, 52, (ALCOBENDAS)",LMXJV 09:00-14:30/16:00-20:00; SD sin horario,Disponibilidad de citas: Media,Madrid,40.5477251,-3.6395073
https://www.citapreviadnie.es/citaPreviaDniExp/ObtenerFechaCitaEspera.action?op=obMeses&equipo=28031L6D1&nombre=U.D.%20DE%20ALCORCON&seleccion=hora&espera=1,U.D. DE ALCORCON,"U.D. DE ALCORCON CALLE ALFREDO NOBEL,10, (ALCORCON)","CALLE ALFREDO NOBEL,10, (ALCORCON)",LMXJV 09:00-14:30/16:00-21:00; SD sin horario,Disponibilidad de citas: Alta,Madrid,40.33454845,-3.8322265756729204
https://www.citapreviadnie.es/citaPreviaDniExp/ObtenerFechaCitaEspera.action?op=obMeses&equipo=28061L6D1&nombre=U.D.%20DE%20ARANJUEZ&seleccion=hora&espera=1,U.D. DE ARANJUEZ,"U.D. DE ARANJUEZ AVENIDA PRíNCIPE, 40, (ARANJUEZ)","AVENIDA PRíNCIPE, 40, (ARANJUEZ)",LMXJV 09:00-14:30/16:00-20:00; SD sin horario,Disponibilidad de citas: Alta,Madrid,40.0356061,-3.5989787
https://www.citapreviadnie.es/citaPreviaDniExp/ObtenerFechaCitaEspera.action?op=obMeses&equipo=28066L6D1&nombre=U.D.%20DE%20ARGANDA%20DEL%20REY&seleccion=hora&espera=1,U.D. DE ARGANDA DEL REY,"U.D. DE ARGANDA DEL REY AVDA. DEL MEDITERRANEO,7  (EDIF.POLICIA MUNICIPA, (ARGANDA DEL REY)","AVDA. DEL MEDITERRANEO,7 (EDIF.POLICIA MUNICIPA, (ARGANDA DEL REY)",LMXJV 09:00-14:30; SD sin horario,Disponibilidad de citas: Media,Madrid,,
https://www.citapreviadnie.es/citaPreviaDniExp/ObtenerFechaCitaEspera.action?op=obMeses&equipo=28221L6D1&nombre=U.D.%20DE%20COLLADO-VILLALBA&seleccion=hora&espera=1,U.D. DE COLLADO-VILLALBA,"U.D. DE COLLADO-VILLALBA CALLE SAN FERNANDO, 27, (COLLADO VILLALBA)","CALLE SAN FERNANDO, 27, (COLLADO VILLALBA)",LMXJV 09:00-14:30; SD sin horario,Disponibilidad de citas: Saturado,Madrid,40.6272707,-4.005411580022681
https://www.citapreviadnie.es/citaPreviaDniExp/ObtenerFechaCitaEspera.action?op=obMeses&equipo=28251L6D1&nombre=U.D.%20DE%20COSLADA&seleccion=hora&espera=1,U.D. DE COSLADA,"U.D. DE COSLADA CALLE GUADALQUIVIR, 16, (COSLADA)","CALLE GUADALQUIVIR, 16, (COSLADA)",LMXJV 09:00-14:30; SD sin horario,Disponibilidad de citas: Alta,Madrid,40.42398085,-3.53980625836478
https://www.citapreviadnie.es/citaPreviaDniExp/ObtenerFechaCitaEspera.action?op=obMeses&equipo=28286L6D1&nombre=U.D.%20DE%20FUENLABRADA&seleccion=hora&espera=1,U.D. DE FUENLABRADA,"U.D. DE FUENLABRADA CALLE DE LOS ÁNGELES, 9, (FUENLABRADA)","CALLE DE LOS ÁNGELES, 9, (FUENLABRADA)",LMXJV 09:00-14:30; SD sin horario,Disponibilidad de citas: Alta,Madrid,40.2869573,-3.790760066155127
https://www.citapreviadnie.es/citaPreviaDniExp/ObtenerFechaCitaEspera.action?op=obMeses&equipo=28321L6D1&nombre=U.D.%20DE%20GETAFE&seleccion=hora&espera=1,U.D. DE GETAFE,"U.D. DE GETAFE CALLE CHURRUCA, 6, (GETAFE)","CALLE CHURRUCA, 6, (GETAFE)",LMXJV 09:00-14:30; SD sin horario,Disponibilidad de citas: Alta,Madrid,40.3133291,-3.7295534
https://www.citapreviadnie.es/citaPreviaDniExp/ObtenerFechaCitaEspera.action?op=obMeses&equipo=28366L6D1&nombre=U.D.%20DE%20LEGANES&seleccion=hora&espera=1,U.D. DE LEGANES,"U.D. DE LEGANES AVENIDA UNIVERSIDAD, 27, (LEGANES)","AVENIDA UNIVERSIDAD, 27, (LEGANES)",LMXJV 09:00-14:30; SD sin horario,Disponibilidad de citas: Alta,Madrid,40.329696,-3.7637185
https://www.citapreviadnie.es/citaPreviaDniExp/ObtenerFechaCitaEspera.action?op=obMeses&equipo=2839116D2&nombre=U.D.%20DE%20MADRID-PUENTE%20DE%20VALLECAS&seleccion=hora&espera=1,U.D. DE MADRID-PUENTE DE VALLECAS,"U.D. DE MADRID-PUENTE DE VALLECAS CALLE SIERRA CARBONERA, 35, (MADRID)","CALLE SIERRA CARBONERA, 35, (MADRID)",LMXJ 09:00-14:30/16:00-20:00; V 09:00-14:30; SD sin horario,Disponibilidad de citas: Alta,Madrid,40.306905,-3.4734729
https://www.citapreviadnie.es/citaPreviaDniExp/ObtenerFechaCitaEspera.action?op=obMeses&equipo=28391C6D1&nombre=U.D.%20DE%20MADRID-LATINA&seleccion=hora&espera=1,U.D. DE MADRID-LATINA,"U.D. DE MADRID-LATINA AVENIDA DE LOS POBLADOS, S/N, (MADRID)","AVENIDA DE LOS POBLADOS, S/N, (MADRID)",LMXJV 09:00-14:30; SD sin horario,Disponibilidad de citas: Alta,Madrid,40.3707871,-3.6954857
https://www.citapreviadnie.es/citaPreviaDniExp/ObtenerFechaCitaEspera.action?op=obMeses&equipo=28391E6D1&nombre=U.D.%20DE%20MADRID-CARABANCHEL&seleccion=hora&espera=1,U.D. DE MADRID-CARABANCHEL,"U.D. DE MADRID-CARABANCHEL CALLE PADRE AMIGO, 3, (MADRID)","CALLE PADRE AMIGO, 3, (MADRID)",LMXJ 09:00-14:30/16:00-20:00; V 09:00-14:30; SD sin horario,Disponibilidad de citas: Media,Madrid,40.3797198,-3.740046
https://www.citapreviadnie.es/citaPreviaDniExp/ObtenerFechaCitaEspera.action?op=obMeses&equipo=28391F6D1&nombre=U.D.%20DE%20MADRID-CENTRO&seleccion=hora&espera=1,U.D. DE MADRID-CENTRO,"U.D. DE MADRID-CENTRO CALLE LUNA 17, (MADRID)","CALLE LUNA 17, (MADRID)",LMXJV 09:00-14:30; SD sin horario,Disponibilidad de citas: Media,Madrid,40.8158452,-3.6046966177146587
https://www.citapreviadnie.es/citaPreviaDniExp/ObtenerFechaCitaEspera.action?op=obMeses&equipo=28391G6D1&nombre=U.D.%20DE%20MADRID-CIUDAD%20LINEAL&seleccion=hora&espera=1,U.D. DE MADRID-CIUDAD LINEAL,"U.D. DE MADRID-CIUDAD LINEAL TRAVESIA VIRGEN DE LA ROCA Nº 25, (MADRID)","TRAVESIA VIRGEN DE LA ROCA Nº 25, (MADRID)",LMXJ 09:00-20:00; V 09:00-14:30; SD sin horario,Disponibilidad de citas: Alta,Madrid,,
https://www.citapreviadnie.es/citaPreviaDniExp/ObtenerFechaCitaEspera.action?op=obMeses&equipo=28391H6D1&nombre=U.D.%20DE%20MADRID-CHAMARTIN&seleccion=hora&espera=1,U.D. DE MADRID-CHAMARTIN,"U.D. DE MADRID-CHAMARTIN AVENIDA PIO XII, 48, (MADRID)","AVENIDA PIO XII, 48, (MADRID)",LMXJV 09:00-14:30; SD sin horario,Disponibilidad de citas: Media,Madrid,40.4734735,-3.6773943
https://www.citapreviadnie.es/citaPreviaDniExp/ObtenerFechaCitaEspera.action?op=obMeses&equipo=28391K6D1&nombre=U.D.%20DE%20MADRID-VILLA%20DE%20VALLECAS&seleccion=hora&espera=1,U.D. DE MADRID-VILLA DE VALLECAS,"U.D. DE MADRID-VILLA DE VALLECAS PLAZA DE LAS REGIONES, S/N (ENTREVIAS), (MADRID)","PLAZA DE LAS REGIONES, S/N (ENTREVIAS), (MADRID)",LMXJV 09:00-14:30; SD sin horario,Disponibilidad de citas: Alta,Madrid,40.3796556,-3.6709038
https://www.citapreviadnie.es/citaPreviaDniExp/ObtenerFechaCitaEspera.action?op=obMeses&equipo=28391M6D1&nombre=U.D.%20DE%20MADRID-FUENCARRAL-EL%20PARDO&seleccion=hora&espera=1,U.D. DE MADRID-FUENCARRAL-EL PARDO,"U.D. DE MADRID-FUENCARRAL-EL PARDO C/ MIRADOR DE LA REINA, 4, (MADRID)","C/ MIRADOR DE LA REINA, 4, (MADRID)",LMXJV 09:00-14:30; SD sin horario,Disponibilidad de citas: Media,Madrid,,
https://www.citapreviadnie.es/citaPreviaDniExp/ObtenerFechaCitaEspera.action?op=obMeses&equipo=28391N6D1&nombre=U.D.%20DE%20MADRID-HORTALEZA&seleccion=hora&espera=1,U.D. DE MADRID-HORTALEZA,"U.D. DE MADRID-HORTALEZA CALLE JAVIER DEL QUINTO, S/N, (MADRID)","CALLE JAVIER DEL QUINTO, S/N, (MADRID)",LMXJ 09:00-14:30/16:00-20:00; V 09:00-14:30; SD sin horario,Disponibilidad de citas: Media,Madrid,,
https://www.citapreviadnie.es/citaPreviaDniExp/ObtenerFechaCitaEspera.action?op=obMeses&equipo=28391R6D1&nombre=U.D.%20DE%20MADRID-ARGANZUELA&seleccion=hora&espera=1,U.D. DE MADRID-ARGANZUELA,"U.D. DE MADRID-ARGANZUELA C/ RUY GONZÁLEZ DE CLAVIJO, 4, (MADRID)","C/ RUY GONZÁLEZ DE CLAVIJO, 4, (MADRID)",LMXJV 09:00-14:30; SD sin horario,Disponibilidad de citas: Alta,Madrid,,
https://www.citapreviadnie.es/citaPreviaDniExp/ObtenerFechaCitaEspera.action?op=obMeses&equipo=28391T6D1&nombre=U.D.%20DE%20MADRID-DOCE%20DE%20OCTUBRE&seleccion=hora&espera=1,U.D. DE MADRID-DOCE DE OCTUBRE,"U.D. DE MADRID-DOCE DE OCTUBRE CALLE DOCE DE OCTUBRE, 7, (MADRID)","CALLE DOCE DE OCTUBRE, 7, (MADRID)",LMXJV 09:00-14:30; SD sin horario,Disponibilidad de citas: Media,Madrid,40.9874071,-3.6363199
https://www.citapreviadnie.es/citaPreviaDniExp/ObtenerFechaCitaEspera.action?op=obMeses&equipo=28391W6D1&nombre=U.D.%20DE%20MADRID-SAN%20BLAS&seleccion=hora&espera=1,U.D. DE MADRID-SAN BLAS,"U.D. DE MADRID-SAN BLAS CALLE ALBERIQUE ESQUINA AVENIDA HELLIN, (MADRID)","CALLE ALBERIQUE ESQUINA AVENIDA HELLIN, (MADRID)",LMXJV 09:00-14:30; SD sin horario,Disponibilidad de citas: Alta,Madrid,,
https://www.citapreviadnie.es/citaPreviaDniExp/ObtenerFechaCitaEspera.action?op=obMeses&equipo=28391Y6D1&nombre=U.D.%20DE%20MADRID-TETUAN&seleccion=hora&espera=1,U.D. DE MADRID-TETUAN,"U.D. DE MADRID-TETUAN CALLE SANTA VALENTINA Nº2, (MADRID)","CALLE SANTA VALENTINA Nº2, (MADRID)",LMXJV 09:00-14:30; SD sin horario,Disponibilidad de citas: Alta,Madrid,40.4658376,-3.6969905
https://www.citapreviadnie.es/citaPreviaDniExp/ObtenerFechaCitaEspera.action?op=obMeses&equipo=28391Z6D1&nombre=U.D.%20DE%20MADRID-USERA-VILLAVERDE%201&seleccion=hora&espera=1,U.D. DE MADRID-USERA-VILLAVERDE 1,"U.D. DE MADRID-USERA-VILLAVERDE 1 PASEO GIGANTES Y CABEZUDOS  nº 30, (MADRID)","PASEO GIGANTES Y CABEZUDOS nº 30, (MADRID)",LMXJV 09:00-14:30; SD sin horario,Disponibilidad de citas: Media,Madrid,,
https://www.citapreviadnie.es/citaPreviaDniExp/ObtenerFechaCitaEspera.action?op=obMeses&equipo=28391Z6D2&nombre=U.D.%20DE%20MADRID-USERA-VILLAVERDE%202&seleccion=hora&espera=1,U.D. DE MADRID-USERA-VILLAVERDE 2,"U.D. DE MADRID-USERA-VILLAVERDE 2 C/ PRIMITIVA GAÑÁN, S/N, (MADRID)","C/ PRIMITIVA GAÑÁN, S/N, (MADRID)",LMXJV 09:00-14:30; SD sin horario,Disponibilidad de citas: Alta,Madrid,,
https://www.citapreviadnie.es/citaPreviaDniExp/ObtenerFechaCitaEspera.action?op=obMeses&equipo=28396L6D1&nombre=U.D.%20DE%20MAJADAHONDA&seleccion=hora&espera=1,U.D. DE MAJADAHONDA,"U.D. DE MAJADAHONDA CARRETERA VILLANUEVA DEL PARDILLO 3, (MAJADAHONDA)","CARRETERA VILLANUEVA DEL PARDILLO 3, (MAJADAHONDA)",LMXJV 09:00-14:30; SD sin horario,Disponibilidad de citas: Baja,Madrid,,
https://www.citapreviadnie.es/citaPreviaDniExp/ObtenerFechaCitaEspera.action?op=obMeses&equipo=28451L6D1&nombre=U.D.%20DE%20MOSTOLES&seleccion=hora&espera=1,U.D. DE MOSTOLES,"U.D. DE MOSTOLES CALLE GRANADA,9 FRENTE MOSTOLES INDUSTRIAL, (MOSTOLES)","CALLE GRANADA,9 FRENTE MOSTOLES INDUSTRIAL, (MOSTOLES)",LMXJV 09:00-20:00; S 09:00-14:00; D sin horario,Disponibilidad de citas: Alta,Madrid,,
https://www.citapreviadnie.es/citaPreviaDniExp/ObtenerFechaCitaEspera.action?op=obMeses&equipo=28506L6D1&nombre=U.D.%20DE%20PARLA&seleccion=hora&espera=1,U.D. DE PARLA,"U.D. DE PARLA AVENIDA JUAN CARLOS I Nº 2, (PARLA)","AVENIDA JUAN CARLOS I Nº 2, (PARLA)",LMXJ 09:00-14:30/16:00-19:00; V 09:00-14:30; SD sin horario,Disponibilidad de citas: Alta,Madrid,40.2330566,-3.7718809
https://www.citapreviadnie.es/citaPreviaDniExp/ObtenerFechaCitaEspera.action?op=obMeses&equipo=28551L6D1&nombre=U.D.%20DE%20POZUELO%20DE%20ALARC%C3%93N&seleccion=hora&espera=1,U.D. DE POZUELO DE ALARCÓN,"U.D. DE POZUELO DE ALARCÓN CALLE CAMINO DE LAS HUERTAS 36, (POZUELO DE ALARCON)","CALLE CAMINO DE LAS HUERTAS 36, (POZUELO DE ALARCON)",LMXJV 09:00-14:30; SD sin horario,Disponibilidad de citas: Alta,Madrid,40.4393856,-3.8166561
https://www.citapreviadnie.es/citaPreviaDniExp/ObtenerFechaCitaEspera.action?op=obMeses&equipo=28596L6D1&nombre=U.D.%20DE%20RIVAS-VACIAMADRID&seleccion=hora&espera=1,U.D. DE RIVAS-VACIAMADRID,"U.D. DE RIVAS-VACIAMADRID C/ JOSE HIERRO 82, (RIVAS-VACIAMADRID)","C/ JOSE HIERRO 82, (RIVAS-VACIAMADRID)",LMXJV 09:00-14:30; SD sin horario,Disponibilidad de citas: Media,Madrid,,
https://www.citapreviadnie.es/citaPreviaDniExp/ObtenerFechaCitaEspera.action?op=obMeses&equipo=28711L6D1&nombre=U.D.%20DE%20TORREJ%C3%93N%20DE%20ARDOZ&seleccion=hora&espera=1,U.D. DE TORREJÓN DE ARDOZ,"U.D. DE TORREJÓN DE ARDOZ CALLE HILADOS, 15, (TORREJÓN DE ARDOZ)","CALLE HILADOS, 15, (TORREJÓN DE ARDOZ)",LMXJ 09:00-14:30/16:00-20:30; V 09:00-14:30; S 09:00-13:30; D sin hora,Disponibilidad de citas: Alta,Madrid,40.44661515,-3.4598291104130077
https://www.citapreviadnie.es/citaPreviaDniExp/ObtenerFechaCitaEspera.action?op=obMeses&equipo=28776L6D1&nombre=U.D.%20DE%20VALDEMORO&seleccion=hora&espera=1,U.D. DE VALDEMORO,"U.D. DE VALDEMORO AVENIDA DE ESPAÑA, 97, (VALDEMORO)","AVENIDA DE ESPAÑA, 97, (VALDEMORO)",LMXJV 09:00-14:30; SD sin horario,Disponibilidad de citas: Media,Madrid,40.1891295,-3.6918051
https://www.citapreviadnie.es/citaPreviaDniExp/ObtenerFechaCitaEspera.action?op=obMeses&equipo=22365L6D1&nombre=U.D.%20DE%20FRAGA&seleccion=hora&espera=1,U.D. DE FRAGA,"U.D. DE FRAGA PLAZA DE ESPAÑA   Nº 1, (FRAGA)","PLAZA DE ESPAÑA Nº 1, (FRAGA)",LMXJV 09:00-14:30; SD sin horario,Disponibilidad de citas: Alta,Huesca,41.52114755,0.35183285407737974
https://www.citapreviadnie.es/citaPreviaDniExp/ObtenerFechaCitaEspera.action?op=obMeses&equipo=22401A6D1&nombre=U.D.%20DE%20HUESCA&seleccion=hora&espera=1,U.D. DE HUESCA,"U.D. DE HUESCA PLAZA LUIS BUÑUEL, 3, (HUESCA)","PLAZA LUIS BUÑUEL, 3, (HUESCA)",LMXJV 08:30-14:30; SD sin horario,Disponibilidad de citas: Alta,Huesca,42.1411469,-0.4154744
https://www.citapreviadnie.es/citaPreviaDniExp/ObtenerFechaCitaEspera.action?op=obMeses&equipo=22421L6D1&nombre=U.D.%20DE%20JACA&seleccion=hora&espera=1,U.D. DE JACA,"U.D. DE JACA AVDA. ZARAGOZA, 14, (JACA)","AVDA. ZARAGOZA, 14, (JACA)",LMXJV 09:00-14:30; SD sin horario,Disponibilidad de citas: Alta,Huesca,42.572747050000004,-0.5482439878778331
https://www.citapreviadnie.es/citaPreviaDniExp/ObtenerFechaCitaEspera.action?op=obMeses&equipo=22493L6D1&nombre=U.D.%20DE%20MONZ%C3%93N&seleccion=hora&espera=1,U.D. DE MONZÓN,"U.D. DE MONZÓN PLAZA MAYOR NUMERO 4, (MONZON)","PLAZA MAYOR NUMERO 4, (MONZON)",LMXJV 09:00-14:30; SD sin horario,Disponibilidad de citas: Alta,Huesca,,
https://www.citapreviadnie.es/citaPreviaDniExp/ObtenerFechaCitaEspera.action?op=obMeses&equipo=50199L6D1&nombre=U.D.%20DE%20CALATAYUD&seleccion=hora&espera=1,U.D. DE CALATAYUD,"U.D. DE CALATAYUD C/ CORAL BILBILITANA NUM.8, (CALATAYUD)","C/ CORAL BILBILITANA NUM.8, (CALATAYUD)",LMXJV 09:00-14:30; SD sin horario,Disponibilidad de citas: Alta,Zaragoza,,
https://www.citapreviadnie.es/citaPreviaDniExp/ObtenerFechaCitaEspera.action?op=obMeses&equipo=50868A6D1&nombre=U.D.%20DE%20ZARAGOZA-CENTRO%20(PASEO%20DE%20TERUEL)&seleccion=hora&espera=1,U.D. DE ZARAGOZA-CENTRO (PASEO DE TERUEL),"U.D. DE ZARAGOZA-CENTRO (PASEO DE TERUEL) PASEO DE TERUEL, 10, (ZARAGOZA)","PASEO DE TERUEL, 10, (ZARAGOZA)",LMXJV 09:00-14:30; SD sin horario,Disponibilidad de citas: Alta,Zaragoza,41.648692,-0.89023
https://www.citapreviadnie.es/citaPreviaDniExp/ObtenerFechaCitaEspera.action?op=obMeses&equipo=50868A6D2&nombre=U.D.%20DE%20ZARAGOZA-DELICIAS&seleccion=hora&espera=1,U.D. DE ZARAGOZA-DELICIAS,"U.D. DE ZARAGOZA-DELICIAS AVENIDA DE VALENCIA, 50, (ZARAGOZA)","AVENIDA DE VALENCIA, 50, (ZARAGOZA)",LMXJV 09:00-14:30/16:00-20:00; SD sin horario,Disponibilidad de citas: Alta,Zaragoza,41.6458503,-0.8984179
https://www.citapreviadnie.es/citaPreviaDniExp/ObtenerFechaCitaEspera.action?op=obMeses&equipo=50868B6D1&nombre=U.D.%20DE%20ZARAGOZA-ARRABAL&seleccion=hora&espera=1,U.D. DE ZARAGOZA-ARRABAL,"U.D. DE ZARAGOZA-ARRABAL CALLE ALMADIEROS DEL RONCAL, S/N, (ZARAGOZA)","CALLE ALMADIEROS DEL RONCAL, S/N, (ZARAGOZA)",LMXJV 09:00-14:30; SD sin horario,Disponibilidad de citas: Alta,Zaragoza,41.6622892,-0.8727793
https://www.citapreviadnie.es/citaPreviaDniExp/ObtenerFechaCitaEspera.action?op=obMeses&equipo=50868R6D1&nombre=U.D.%20DE%20ZARAGOZA-ACTUR-REY%20FERNANDO&seleccion=hora&espera=1,U.D. DE ZARAGOZA-ACTUR-REY FERNANDO,"U.D. DE ZARAGOZA-ACTUR-REY FERNANDO AVENIDA JOSE ATARÉS 105, (ZARAGOZA)","AVENIDA JOSE ATARÉS 105, (ZARAGOZA)",LMXJV 09:00-14:30; SD sin horario,Disponibilidad de citas: Alta,Zaragoza,41.6797255,-0.8990636
https://www.citapreviadnie.es/citaPreviaDniExp/ObtenerFechaCitaEspera.action?op=obMeses&equipo=50868S6D1&nombre=U.D.%20DE%20ZARAGOZA-SAN%20JOSE&seleccion=hora&espera=1,U.D. DE ZARAGOZA-SAN JOSE,"U.D. DE ZARAGOZA-SAN JOSE PASEO DE ROSALES, 24 DUPL., (ZARAGOZA)","PASEO DE ROSALES, 24 DUPL., (ZARAGOZA)",LMXJV 09:00-14:30; SD sin horario,Disponibilidad de citas: Alta,Zaragoza,,
https://www.citapreviadnie.es/citaPreviaDniExp/ObtenerFechaCitaEspera.action?op=obMeses&equipo=44041L6D1&nombre=U.D.%20DE%20ALCA%C3%91IZ&seleccion=hora&espera=1,U.D. DE ALCAÑIZ,"U.D. DE ALCAÑIZ RONDA DE CASPE Nº 1, (ALCAÑIZ)","RONDA DE CASPE Nº 1, (ALCAÑIZ)",LMXJV 09:00-14:30; SD sin horario,Disponibilidad de citas: Alta,Teruel,41.0461465,-0.1260549
https://www.citapreviadnie.es/citaPreviaDniExp/ObtenerFechaCitaEspera.action?op=obMeses&equipo=44745A6D1&nombre=U.D.%20DE%20TERUEL&seleccion=hora&espera=1,U.D. DE TERUEL,"U.D. DE TERUEL CALLE CÓRDOBA, 2, (TERUEL)","CALLE CÓRDOBA, 2, (TERUEL)",LMXJV 09:00-14:30; SD sin horario,Disponibilidad de citas: Alta,Teruel,40.3368467,-1.1024632
https://www.citapreviadnie.es/citaPreviaDniExp/ObtenerFechaCitaEspera.action?op=obMeses&equipo=07256L6D1&nombre=U.D.%20DE%20CIUTADELLA%20DE%20MENORCA&seleccion=hora&espera=1,U.D. DE CIUTADELLA DE MENORCA,"U.D. DE CIUTADELLA DE MENORCA CALLE REPÚBLICA ARGENTINA, 4, (CIUTADELLA DE MENORCA)","CALLE REPÚBLICA ARGENTINA, 4, (CIUTADELLA DE MENORCA)",LMXJV 08:30-14:30; SD sin horario,Disponibilidad de citas: Alta,Illes Balears,,
https://www.citapreviadnie.es/citaPreviaDniExp/ObtenerFechaCitaEspera.action?op=obMeses&equipo=07391L6D1&nombre=U.D.%20DE%20EIVISSA&seleccion=hora&espera=1,U.D. DE EIVISSA,"U.D. DE EIVISSA AVENIDA DE LA PAZ SN., (EIVISSA)","AVENIDA DE LA PAZ SN., (EIVISSA)",LMXJ 09:00-14:30/16:00-19:00; V 09:00-14:30; SD sin horario,Disponibilidad de citas: Media,Illes Balears,,
https://www.citapreviadnie.es/citaPreviaDniExp/ObtenerFechaCitaEspera.action?op=obMeses&equipo=07481L6D1&nombre=U.D.%20DE%20MA%C3%93&seleccion=hora&espera=1,U.D. DE MAÓ,"U.D. DE MAÓ CALLE SAN SEBASTIÁN Nº 2, (MAHON)","CALLE SAN SEBASTIÁN Nº 2, (MAHON)",LMXJV 08:30-14:00; SD sin horario,Disponibilidad de citas: Alta,Illes Balears,,
https://www.citapreviadnie.es/citaPreviaDniExp/ObtenerFechaCitaEspera.action?op=obMeses&equipo=07496L6D1&nombre=U.D.%20DE%20MANACOR&seleccion=hora&espera=1,U.D. DE MANACOR,"U.D. DE MANACOR RAMBLA REI JAUME, 8, (MANACOR)","RAMBLA REI JAUME, 8, (MANACOR)",LMXJ 09:00-14:30/16:00-19:00; V 09:00-14:30; SD sin horario,Disponibilidad de citas: Media,Illes Balears,39.5652962,3.2131978
https://www.citapreviadnie.es/citaPreviaDniExp/ObtenerFechaCitaEspera.action?op=obMeses&equipo=07601A6D1&nombre=U.D.%20DE%20PALMA&seleccion=hora&espera=1,U.D. DE PALMA,"U.D. DE PALMA CALLE SIMÓ BALLESTER, 8, (PALMA DE MALLORCA)","CALLE SIMÓ BALLESTER, 8, (PALMA DE MALLORCA)",LMXJV 08:30-14:30/15:00-20:00; S 09:00-14:00; D sin horario,Disponibilidad de citas: Alta,Illes Balears,39.574508,2.6419808
https://www.citapreviadnie.es/citaPreviaDniExp/ObtenerFechaCitaEspera.action?op=obMeses&equipo=07601F6D1&nombre=U.D.%20DE%20PALMA-OESTE&seleccion=hora&espera=1,U.D. DE PALMA-OESTE,"U.D. DE PALMA-OESTE CARRETERA DE VALLDEMOSSA, 13, (PALMA DE MALLORCA)","CARRETERA DE VALLDEMOSSA, 13, (PALMA DE MALLORCA)",LMXJV 08:30-14:30; SD sin horario,Disponibilidad de citas: Alta,Illes Balears,39.5867861,2.650392
https://www.citapreviadnie.es/citaPreviaDniExp/ObtenerFechaCitaEspera.action?op=obMeses&equipo=12246A6D1&nombre=U.D.%20DE%20CASTELL%C3%93N%20DE%20LA%20PLANA/CASTELL%C3%93%20DE%20LA%20PLA&seleccion=hora&espera=1,U.D. DE CASTELLÓN DE LA PLANA/CASTELLÓ DE LA PLA,"U.D. DE CASTELLÓN DE LA PLANA/CASTELLÓ DE LA PLA C/RIO SELLA nº5, (CASTELLÓ DE LA PLANA)","C/RIO SELLA nº5, (CASTELLÓ DE LA PLANA)",LMXJV 09:00-14:30; SD sin horario,Disponibilidad de citas: Media,Castelló,39.9729228,-0.0342776
https://www.citapreviadnie.es/citaPreviaDniExp/ObtenerFechaCitaEspera.action?op=obMeses&equipo=12890L6D1&nombre=U.D.%20DE%20VILA-REAL&seleccion=hora&espera=1,U.D. DE VILA-REAL,"U.D. DE VILA-REAL CALLE COMUNION Nº 1, (VILA-REAL)","CALLE COMUNION Nº 1, (VILA-REAL)",LMXJV 09:00-14:30; SD sin horario,Disponibilidad de citas: Alta,Castelló,,
https://www.citapreviadnie.es/citaPreviaDniExp/ObtenerFechaCitaEspera.action?op=obMeses&equipo=12911L6D1&nombre=U.D.%20DE%20VINAR%C3%92S&seleccion=hora&espera=1,U.D. DE VINARÒS,"U.D. DE VINARÒS PLAZA SAN TELMO, (VINARÓS)","PLAZA SAN TELMO, (VINARÓS)",LMXJV 09:00-14:30; SD sin horario,Disponibilidad de citas: Media,Castelló,,
https://www.citapreviadnie.es/citaPreviaDniExp/ObtenerFechaCitaEspera.action?op=obMeses&equipo=46049L6D1&nombre=U.D.%20DE%20ALZIRA&seleccion=hora&espera=1,U.D. DE ALZIRA,"U.D. DE ALZIRA CALLE PERE MORELL, 4, (ALZIRA)","CALLE PERE MORELL, 4, (ALZIRA)",LMXJ 09:00-14:30/16:00-19:00; V 09:00-14:30; SD sin horario,Disponibilidad de citas: Baja,Valencia,39.1522197,-0.4454154
https://www.citapreviadnie.es/citaPreviaDniExp/ObtenerFechaCitaEspera.action?op=obMeses&equipo=46232L6D1&nombre=U.D.%20DE%20BURJASSOT&seleccion=hora&espera=1,U.D. DE BURJASSOT,"U.D. DE BURJASSOT JOSE CARSI, 10, (BURJASOT)","JOSE CARSI, 10, (BURJASOT)",LMXJ 09:00-14:30/16:00-19:00; V 09:00-14:30; SD sin horario,Disponibilidad de citas: Media,Valencia,39.508683500000004,-0.4087032367443576
https://www.citapreviadnie.es/citaPreviaDniExp/ObtenerFechaCitaEspera.action?op=obMeses&equipo=46301L6D1&nombre=U.D.%20DE%20XIRIVELLA-ALDAIA-ALAQUAS&seleccion=hora&espera=1,U.D. DE XIRIVELLA-ALDAIA-ALAQUAS,"U.D. DE XIRIVELLA-ALDAIA-ALAQUAS JAUME ROIG Nº 4, XIRIVELLA, (XIRIVELLA)","JAUME ROIG Nº 4, XIRIVELLA, (XIRIVELLA)",LMXJV 09:00-14:30; SD sin horario,Disponibilidad de citas: Media,Valencia,39.464535,-0.4377719
https://www.citapreviadnie.es/citaPreviaDniExp/ObtenerFechaCitaEspera.action?op=obMeses&equipo=46322L6D1&nombre=U.D.%20DE%20QUART%20DE%20POBLET&seleccion=hora&espera=1,U.D. DE QUART DE POBLET,"U.D. DE QUART DE POBLET C/ BLASCO IBAÑEZ Nº 30 BAJO, (QUART DE POBLET)","C/ BLASCO IBAÑEZ Nº 30 BAJO, (QUART DE POBLET)",LMXJV 09:00-14:30; SD sin horario,Disponibilidad de citas: Media,Valencia,,
https://www.citapreviadnie.es/citaPreviaDniExp/ObtenerFechaCitaEspera.action?op=obMeses&equipo=46388L6D1&nombre=U.D.%20DE%20GANDIA&seleccion=hora&espera=1,U.D. DE GANDIA,"U.D. DE GANDIA CALLE CIUDAD DE LAVAL, 5, (GANDIA)","CALLE CIUDAD DE LAVAL, 5, (GANDIA)",LMXJV 09:00-14:30; SD sin horario,Disponibilidad de citas: Alta,Valencia,,
https://www.citapreviadnie.es/citaPreviaDniExp/ObtenerFechaCitaEspera.action?op=obMeses&equipo=46430L6D1&nombre=U.D.%20DE%20X%C3%81TIVA&seleccion=hora&espera=1,U.D. DE XÁTIVA,"U.D. DE XÁTIVA CALLE DEL ANGEL, 7, (XATIVA)","CALLE DEL ANGEL, 7, (XATIVA)",LMXJ 09:00-14:30/15:00-18:00; V 09:00-14:30; SD sin horario,Disponibilidad de citas: Alta,Valencia,,
https://www.citapreviadnie.es/citaPreviaDniExp/ObtenerFechaCitaEspera.action?op=obMeses&equipo=46502L6D1&nombre=U.D.%20DE%20MISLATA&seleccion=hora&espera=1,U.D. DE MISLATA,"U.D. DE MISLATA CAMINO VIEJO DE XIRIVELLA, 30, (MISLATA)","CAMINO VIEJO DE XIRIVELLA, 30, (MISLATA)",LMXJV 09:00-14:30; SD sin horario,Disponibilidad de citas: Alta,Valencia,39.4714687,-0.4121727
https://www.citapreviadnie.es/citaPreviaDniExp/ObtenerFechaCitaEspera.action?op=obMeses&equipo=46547L6D1&nombre=U.D.%20DE%20ONTINYENT&seleccion=hora&espera=1,U.D. DE ONTINYENT,"U.D. DE ONTINYENT PLACETA L'ESCURÁ Nº 2, (ONTENIENTE)","PLACETA L'ESCURÁ Nº 2, (ONTENIENTE)",LMXJV 09:00-14:30; SD sin horario,Disponibilidad de citas: Alta,Valencia,,
https://www.citapreviadnie.es/citaPreviaDniExp/ObtenerFechaCitaEspera.action?op=obMeses&equipo=46565L6D1&nombre=U.D.%20DE%20PATERNA&seleccion=hora&espera=1,U.D. DE PATERNA,"U.D. DE PATERNA CALLE ROSAS, 27, (PATERNA)","CALLE ROSAS, 27, (PATERNA)",LMXJ 09:00-14:30/15:00-21:00; V 09:00-14:30; SD sin horario,Disponibilidad de citas: Media,Valencia,39.5101623,-0.451584698886639
https://www.citapreviadnie.es/citaPreviaDniExp/ObtenerFechaCitaEspera.action?op=obMeses&equipo=46658L6D1&nombre=U.D.%20DE%20SAGUNTO/SAGUNT&seleccion=hora&espera=1,U.D. DE SAGUNTO/SAGUNT,"U.D. DE SAGUNTO/SAGUNT CALLE PROGRESO, 14, (SAGUNTO-PUERTO SAGUNTO)","CALLE PROGRESO, 14, (SAGUNTO-PUERTO SAGUNTO)",LMXJ 09:00-14:30/15:30-19:30; V 09:00-14:30; SD sin horario,Disponibilidad de citas: Alta,Valencia,,
https://www.citapreviadnie.es/citaPreviaDniExp/ObtenerFechaCitaEspera.action?op=obMeses&equipo=46727L6D1&nombre=U.D.%20DE%20TORRENT&seleccion=hora&espera=1,U.D. DE TORRENT,"U.D. DE TORRENT CALLE CONSTITUCION, 49, (TORRENT)","CALLE CONSTITUCION, 49, (TORRENT)",LMXJV 09:00-14:30; SD sin horario,Disponibilidad de citas: Media,Valencia,,
https://www.citapreviadnie.es/citaPreviaDniExp/ObtenerFechaCitaEspera.action?op=obMeses&equipo=46745G6D1&nombre=U.D.%20DE%20VALENCIA-ABASTOS&seleccion=hora&espera=1,U.D. DE VALENCIA-ABASTOS,"U.D. DE VALENCIA-ABASTOS CALLE BUEN ORDEN, S/N, (VALENCIA)","CALLE BUEN ORDEN, S/N, (VALENCIA)",LMXJV 09:00-14:30; SD sin horario,Disponibilidad de citas: Alta,Valencia,,
https://www.citapreviadnie.es/citaPreviaDniExp/ObtenerFechaCitaEspera.action?op=obMeses&equipo=46745S6D1&nombre=U.D.%20DE%20VALENCIA-RUZAFA&seleccion=hora&espera=1,U.D. DE VALENCIA-RUZAFA,"U.D. DE VALENCIA-RUZAFA CALLE ZAPADORES, 52, (VALENCIA)","CALLE ZAPADORES, 52, (VALENCIA)",LMXJV 09:00-19:00; SD sin horario,Disponibilidad de citas: Alta,Valencia,39.4563979,-0.3688379938281579
https://www.citapreviadnie.es/citaPreviaDniExp/ObtenerFechaCitaEspera.action?op=obMeses&equipo=46745X6D1&nombre=U.D.%20DE%20VALENCIA-HOSPITAL&seleccion=hora&espera=1,U.D. DE VALENCIA-HOSPITAL,"U.D. DE VALENCIA-HOSPITAL CALLE HOSPITAL, 32, (VALENCIA)","CALLE HOSPITAL, 32, (VALENCIA)",LMXJV 09:00-14:30/15:00-20:30; SD sin horario,Disponibilidad de citas: Alta,Valencia,39.7349716,-1.2306213
https://www.citapreviadnie.es/citaPreviaDniExp/ObtenerFechaCitaEspera.action?op=obMeses&equipo=03057L6D1&nombre=U.D.%20DE%20ALCOY/ALCOI&seleccion=hora&espera=1,U.D. DE ALCOY/ALCOI,"U.D. DE ALCOY/ALCOI Placeta les Xiques, 3, (ALCOY)","Placeta les Xiques, 3, (ALCOY)",LMXJV 09:00-14:30; SD sin horario,Disponibilidad de citas: Alta,Alacant,38.6981842,-0.4753741405961902
https://www.citapreviadnie.es/citaPreviaDniExp/ObtenerFechaCitaEspera.action?op=obMeses&equipo=03092A6D1&nombre=U.D.%20DE%20ALACANT/ALICANTE&seleccion=hora&espera=1,U.D. DE ALACANT/ALICANTE,"U.D. DE ALACANT/ALICANTE CALLE ISABEL LA CATÓLICA, 25, (ALICANTE)","CALLE ISABEL LA CATÓLICA, 25, (ALICANTE)",LMXJV 09:00-20:00; S 09:00-14:00; D sin horario,Disponibilidad de citas: Media,Alacant,38.34057345,-0.4948615907022066
https://www.citapreviadnie.es/citaPreviaDniExp/ObtenerFechaCitaEspera.action?op=obMeses&equipo=03092A6DS&nombre=U.D.%20DE%20TORREVIEJA&seleccion=hora&espera=1,U.D. DE TORREVIEJA,"U.D. DE TORREVIEJA CALLE ARQUITECTO LARRAMENDI 3, (TORREVIEJA)","CALLE ARQUITECTO LARRAMENDI 3, (TORREVIEJA)",LMXJV 09:00-14:30; SD sin horario,Disponibilidad de citas: Alta,Alacant,37.9824089,-0.6680276
https://www.citapreviadnie.es/citaPreviaDniExp/ObtenerFechaCitaEspera.action?op=obMeses&equipo=03211L6D1&nombre=U.D.%20DE%20BENIDORM&seleccion=hora&espera=1,U.D. DE BENIDORM,"U.D. DE BENIDORM AVENIDA CALLOSA D'EN SARRIA, 2, (BENIDORM)","AVENIDA CALLOSA D'EN SARRIA, 2, (BENIDORM)",LMXJV 09:00-14:30; SD sin horario,Disponibilidad de citas: Alta,Alacant,,
https://www.citapreviadnie.es/citaPreviaDniExp/ObtenerFechaCitaEspera.action?op=obMeses&equipo=03435L6D1&nombre=U.D.%20DE%20D%C3%89NIA&seleccion=hora&espera=1,U.D. DE DÉNIA,"U.D. DE DÉNIA AVENIDA MARQUESADO, 53 BAJO, (DENIA)","AVENIDA MARQUESADO, 53 BAJO, (DENIA)",LMXJV 09:00-14:30; SD sin horario,Disponibilidad de citas: Alta,Alacant,,
https://www.citapreviadnie.es/citaPreviaDniExp/ObtenerFechaCitaEspera.action?op=obMeses&equipo=03449L6D1&nombre=U.D.%20DE%20ELCHE/ELX&seleccion=hora&espera=1,U.D. DE ELCHE/ELX,"U.D. DE ELCHE/ELX CARRER AVET, 1, (ELCHE)","CARRER AVET, 1, (ELCHE)",LMXJV 09:00-14:30; SD sin horario,Disponibilidad de citas: Media,Alacant,38.262650550000004,-0.6875921535978561
https://www.citapreviadnie.es/citaPreviaDniExp/ObtenerFechaCitaEspera.action?op=obMeses&equipo=03456L6D1&nombre=U.D.%20DE%20ELDA&seleccion=hora&espera=1,U.D. DE ELDA,"U.D. DE ELDA CALLE LAMBERTO AMAT, 26, (ELDA)","CALLE LAMBERTO AMAT, 26, (ELDA)",LMXJ 09:00-14:30/16:00-20:00; V 09:00-14:30; SD sin horario,Disponibilidad de citas: Alta,Alacant,38.475196,-0.7975405
https://www.citapreviadnie.es/citaPreviaDniExp/ObtenerFechaCitaEspera.action?op=obMeses&equipo=03680L6D1&nombre=U.D.%20DE%20ORIHUELA&seleccion=hora&espera=1,U.D. DE ORIHUELA,"U.D. DE ORIHUELA CALLE EL SOL, 32, (ORIHUELA)","CALLE EL SOL, 32, (ORIHUELA)",LMXJ 09:00-20:00; V 09:00-14:30; SD sin horario,Disponibilidad de citas: Media,Alacant,37.9527049,-0.7480129
https://www.citapreviadnie.es/citaPreviaDniExp/ObtenerFechaCitaEspera.action?op=obMeses&equipo=10153A6D1&nombre=U.D.%20DE%20C%C3%81CERES&seleccion=hora&espera=1,U.D. DE CÁCERES,"U.D. DE CÁCERES AVENIDA PIERRE DE COUBERTAIN, 13, (CACERES)","AVENIDA PIERRE DE COUBERTAIN, 13, (CACERES)",LMXJV 09:00-14:30; SD sin horario,Disponibilidad de citas: Alta,Cáceres,,
https://www.citapreviadnie.es/citaPreviaDniExp/ObtenerFechaCitaEspera.action?op=obMeses&equipo=10587L6D1&nombre=U.D.%20DE%20PLASENCIA&seleccion=hora&espera=1,U.D. DE PLASENCIA,"U.D. DE PLASENCIA CUEVA DE LA SERRANA S/N, (PLASENCIA)","CUEVA DE LA SERRANA S/N, (PLASENCIA)",LMXJ 09:00-14:30/16:00-19:00; V 09:00-14:30; SD sin horario,Disponibilidad de citas: Alta,Cáceres,40.03779015,-6.093808961175471
https://www.citapreviadnie.es/citaPreviaDniExp/ObtenerFechaCitaEspera.action?op=obMeses&equipo=10805P6D1&nombre=U.D.%20DE%20VALENCIA%20DE%20ALC%C3%81NTARA&seleccion=hora&espera=1,U.D. DE VALENCIA DE ALCÁNTARA,"U.D. DE VALENCIA DE ALCÁNTARA CALLE CANALEJAS 5, (VALENCIA DE ALCANTARA)","CALLE CANALEJAS 5, (VALENCIA DE ALCANTARA)",LMXJV 08:00-14:00; SD sin horario,Disponibilidad de citas: Alta,Cáceres,39.4088756,-7.2428087
https://www.citapreviadnie.es/citaPreviaDniExp/ObtenerFechaCitaEspera.action?op=obMeses&equipo=06061L6D1&nombre=U.D.%20DE%20ALMENDRALEJO&seleccion=hora&espera=1,U.D. DE ALMENDRALEJO,"U.D. DE ALMENDRALEJO PLAZA DE ESPAÑA, 2, (ALMENDRALEJO)","PLAZA DE ESPAÑA, 2, (ALMENDRALEJO)",LMXJV 09:00-14:30; SD sin horario,Disponibilidad de citas: Alta,Badajoz,38.6844218,-6.4076391
https://www.citapreviadnie.es/citaPreviaDniExp/ObtenerFechaCitaEspera.action?op=obMeses&equipo=06085A6D1&nombre=U.D.%20DE%20BADAJOZ&seleccion=hora&espera=1,U.D. DE BADAJOZ,"U.D. DE BADAJOZ AVENIDA RAMON Y CAJAL, S/N, (BADAJOZ)","AVENIDA RAMON Y CAJAL, S/N, (BADAJOZ)",LMXJV 09:00-14:30/15:30-20:30; SD sin horario,Disponibilidad de citas: Alta,Badajoz,,
https://www.citapreviadnie.es/citaPreviaDniExp/ObtenerFechaCitaEspera.action?op=obMeses&equipo=06259L6D1&nombre=U.D.%20DE%20DON%20BENITO&seleccion=hora&espera=1,U.D. DE DON BENITO,"U.D. DE DON BENITO AVENIDA DE CORDOBA, S/N, (DON BENITO)","AVENIDA DE CORDOBA, S/N, (DON BENITO)",LMXJV 09:00-14:30; SD sin horario,Disponibilidad de citas: Alta,Badajoz,38.94890265,-5.854381578970974
https://www.citapreviadnie.es/citaPreviaDniExp/ObtenerFechaCitaEspera.action?op=obMeses&equipo=06493L6D1&nombre=U.D.%20DE%20MERIDA&seleccion=hora&espera=1,U.D. DE MERIDA,"U.D. DE MERIDA AVDA. VALHONDO Nº 8, (MERIDA)","AVDA. VALHONDO Nº 8, (MERIDA)",LMXJV 09:00-14:30; SD sin horario,Disponibilidad de citas: Alta,Badajoz,38.9238017,-6.3343833
https://www.citapreviadnie.es/citaPreviaDniExp/ObtenerFechaCitaEspera.action?op=obMeses&equipo=06919L6D1&nombre=U.D.%20DE%20VILLANUEVA%20DE%20LA%20SERENA&seleccion=hora&espera=1,U.D. DE VILLANUEVA DE LA SERENA,"U.D. DE VILLANUEVA DE LA SERENA PLAZA CONQUISTADORES 55, (VILLANUEVA DE LA SERENA)","PLAZA CONQUISTADORES 55, (VILLANUEVA DE LA SERENA)",LMXJV 09:00-14:30; SD sin horario,Disponibilidad de citas: Alta,Badajoz,38.9767332,-5.8012779
https://www.citapreviadnie.es/citaPreviaDniExp/ObtenerFechaCitaEspera.action?op=obMeses&equipo=06943L6D1&nombre=U.D.%20DE%20ZAFRA&seleccion=hora&espera=1,U.D. DE ZAFRA,"U.D. DE ZAFRA PLAZA PILAR REDONDO S/N, (ZAFRA)","PLAZA PILAR REDONDO S/N, (ZAFRA)",LMXJV 09:00-14:30; SD sin horario,Disponibilidad de citas: Alta,Badajoz,,
https://www.citapreviadnie.es/citaPreviaDniExp/ObtenerFechaCitaEspera.action?op=obMeses&equipo=19322A6D1&nombre=U.D.%20DE%20GUADALAJARA&seleccion=hora&espera=1,U.D. DE GUADALAJARA,"U.D. DE GUADALAJARA AVENIDA DEL EJéRCITO, 12, (GUADALAJARA)","AVENIDA DEL EJéRCITO, 12, (GUADALAJARA)",LMXJ 09:00-17:00; V 09:00-14:30; SD sin horario,Disponibilidad de citas: Alta,Guadalajara,40.6304208,-3.1786775
https://www.citapreviadnie.es/citaPreviaDniExp/ObtenerFechaCitaEspera.action?op=obMeses&equipo=16281A6D1&nombre=U.D.%20DE%20CUENCA&seleccion=hora&espera=1,U.D. DE CUENCA,"U.D. DE CUENCA CALLE ASTRANA MARíN, 4, (CUENCA)","CALLE ASTRANA MARíN, 4, (CUENCA)",LMXJV 09:00-14:30; SD sin horario,Disponibilidad de citas: Alta,Cuenca,39.6816828,-2.5081832
https://www.citapreviadnie.es/citaPreviaDniExp/ObtenerFechaCitaEspera.action?op=obMeses&equipo=16701A6D1&nombre=U.D.%20DE%20TARANC%C3%93N&seleccion=hora&espera=1,U.D. DE TARANCÓN,"U.D. DE TARANCÓN PLAZA DEL AYUNTAMIENTO Nº 1, (TARANCON)","PLAZA DEL AYUNTAMIENTO Nº 1, (TARANCON)",LMXJV 09:00-14:30; SD sin horario,Disponibilidad de citas: Alta,Cuenca,40.0127682,-3.004028
https://www.citapreviadnie.es/citaPreviaDniExp/ObtenerFechaCitaEspera.action?op=obMeses&equipo=45657L6D1&nombre=U.D.%20DE%20TALAVERA%20DE%20LA%20REINA&seleccion=hora&espera=1,U.D. DE TALAVERA DE LA REINA,"U.D. DE TALAVERA DE LA REINA CALLE CARLOS BARRAL, 2, (TALAVERA DE LA REINA)","CALLE CARLOS BARRAL, 2, (TALAVERA DE LA REINA)",LMXJV 09:00-14:30; SD sin horario,Disponibilidad de citas: Alta,Toledo,39.9569682,-4.8154899
https://www.citapreviadnie.es/citaPreviaDniExp/ObtenerFechaCitaEspera.action?op=obMeses&equipo=45669A6D1&nombre=U.D.%20DE%20TOLEDO&seleccion=hora&espera=1,U.D. DE TOLEDO,"U.D. DE TOLEDO AVDA PORTUGAL, S/N, (TOLEDO)","AVDA PORTUGAL, S/N, (TOLEDO)",LMXJ 09:00-14:30/15:00-21:00; V 09:00-14:30/16:00-21:00; SD sin horari,Disponibilidad de citas: Alta,Toledo,39.9421618,-4.4399145
https://www.citapreviadnie.es/citaPreviaDniExp/ObtenerFechaCitaEspera.action?op=obMeses&equipo=13041L6D1&nombre=U.D.%20DE%20ALCAZAR%20DE%20SAN%20JUAN&seleccion=hora&espera=1,U.D. DE ALCAZAR DE SAN JUAN,"U.D. DE ALCAZAR DE SAN JUAN AVENIDA ALVAREZ GUERRA,10, (ALCAZAR DE SAN JUAN)","AVENIDA ALVAREZ GUERRA,10, (ALCAZAR DE SAN JUAN)",LMXJV 09:00-14:30; SD sin horario,Disponibilidad de citas: Alta,Ciudad Real,39.3949279,-3.2059233
https://www.citapreviadnie.es/citaPreviaDniExp/ObtenerFechaCitaEspera.action?op=obMeses&equipo=13341A6D1&nombre=U.D.%20DE%20CIUDAD%20REAL&seleccion=hora&espera=1,U.D. DE CIUDAD REAL,"U.D. DE CIUDAD REAL RONDA DE TOLEDO, 27, (CIUDAD REAL)","RONDA DE TOLEDO, 27, (CIUDAD REAL)",LMXJ 09:00-14:30/15:00-19:00; V 09:00-14:30; SD sin horario,Disponibilidad de citas: Alta,Ciudad Real,38.992892600000005,-3.922549931374058
https://www.citapreviadnie.es/citaPreviaDniExp/ObtenerFechaCitaEspera.action?op=obMeses&equipo=13701L6D1&nombre=U.D.%20DE%20PUERTOLLANO&seleccion=hora&espera=1,U.D. DE PUERTOLLANO,"U.D. DE PUERTOLLANO CALLE CRUCES, 26, (PUERTOLLANO)","CALLE CRUCES, 26, (PUERTOLLANO)",LMXJV 09:00-14:30; SD sin horario,Disponibilidad de citas: Alta,Ciudad Real,38.68947265,-4.110850736638703
https://www.citapreviadnie.es/citaPreviaDniExp/ObtenerFechaCitaEspera.action?op=obMeses&equipo=13811L6D1&nombre=U.D.%20DE%20TOMELLOSO&seleccion=hora&espera=1,U.D. DE TOMELLOSO,"U.D. DE TOMELLOSO CALLE ELADIO CABAÑERO S/N, (TOMELLOSO)","CALLE ELADIO CABAÑERO S/N, (TOMELLOSO)",LMXJV 09:00-14:30; SD sin horario,Disponibilidad de citas: Alta,Ciudad Real,,
https://www.citapreviadnie.es/citaPreviaDniExp/ObtenerFechaCitaEspera.action?op=obMeses&equipo=13861L6D1&nombre=U.D.%20DE%20VALDEPE%C3%91AS&seleccion=hora&espera=1,U.D. DE VALDEPEÑAS,"U.D. DE VALDEPEÑAS CALLE AMAPOLA 12, (VALDEPEÑAS)","CALLE AMAPOLA 12, (VALDEPEÑAS)",LMXJ 09:00-14:30/16:00-19:00; V 09:00-14:30; S 09:00-14:00; D sin hora,Disponibilidad de citas: Alta,Ciudad Real,38.7709953,-3.3804245
https://www.citapreviadnie.es/citaPreviaDniExp/ObtenerFechaCitaEspera.action?op=obMeses&equipo=02023A6D1&nombre=U.D.%20DE%20ALBACETE&seleccion=hora&espera=1,U.D. DE ALBACETE,"U.D. DE ALBACETE CALLE BUEN PASTOR, 1, (ALBACETE)","CALLE BUEN PASTOR, 1, (ALBACETE)",LMXJV 09:00-14:30/15:00-21:00; SD sin horario,Disponibilidad de citas: Alta,Albacete,38.9943394,-1.8487725
https://www.citapreviadnie.es/citaPreviaDniExp/ObtenerFechaCitaEspera.action?op=obMeses&equipo=02397L6D1&nombre=U.D.%20DE%20HELL%C3%8DN&seleccion=hora&espera=1,U.D. DE HELLÍN,"U.D. DE HELLÍN C/ FORTUNATO ARIAS, 2, (HELLÍN)","C/ FORTUNATO ARIAS, 2, (HELLÍN)",LMXJV 09:00-14:30; SD sin horario,Disponibilidad de citas: Alta,Albacete,38.50723,-1.6967894
https://www.citapreviadnie.es/citaPreviaDniExp/ObtenerFechaCitaEspera.action?op=obMeses&equipo=30089L6D1&nombre=U.D.%20DE%20ALCANTARILLA&seleccion=hora&espera=1,U.D. DE ALCANTARILLA,"U.D. DE ALCANTARILLA CALLE ERAS, 15, (ALCANTARILLA)","CALLE ERAS, 15, (ALCANTARILLA)",LMXJ 09:00-14:30/17:00-20:00; V 09:00-14:30; SD sin horario,Disponibilidad de citas: Alta,Murcia,37.9686651,-1.2119263
https://www.citapreviadnie.es/citaPreviaDniExp/ObtenerFechaCitaEspera.action?op=obMeses&equipo=30331L6D1&nombre=U.D.%20DE%20CARTAGENA&seleccion=hora&espera=1,U.D. DE CARTAGENA,"U.D. DE CARTAGENA C/ MENÉNDEZ Y PELAYO 6, (CARTAGENA)","C/ MENÉNDEZ Y PELAYO 6, (CARTAGENA)",LMXJV 09:00-14:30/16:00-19:00; SD sin horario,Disponibilidad de citas: Media,Murcia,,
https://www.citapreviadnie.es/citaPreviaDniExp/ObtenerFechaCitaEspera.action?op=obMeses&equipo=30507L6D1&nombre=U.D.%20DE%20LORCA&seleccion=hora&espera=1,U.D. DE LORCA,"U.D. DE LORCA PLAZA DE LA POLICIA NACIONAL 1, (LORCA)","PLAZA DE LA POLICIA NACIONAL 1, (LORCA)",LMXJV 09:00-14:30; SD sin horario,Disponibilidad de citas: Alta,Murcia,37.664446,-1.6961879291467792
https://www.citapreviadnie.es/citaPreviaDniExp/ObtenerFechaCitaEspera.action?op=obMeses&equipo=30573L6D1&nombre=U.D.%20DE%20MOLINA%20DE%20SEGURA&seleccion=hora&espera=1,U.D. DE MOLINA DE SEGURA,"U.D. DE MOLINA DE SEGURA CALLE CANARIAS, S/N, (MOLINA DE SEGURA)","CALLE CANARIAS, S/N, (MOLINA DE SEGURA)",LMXJ 09:00-14:30/16:00-21:00; V 09:00-14:30; SD sin horario,Disponibilidad de citas: Media,Murcia,38.0601487,-1.2171342
https://www.citapreviadnie.es/citaPreviaDniExp/ObtenerFechaCitaEspera.action?op=obMeses&equipo=30639A6D1&nombre=U.D.%20DE%20MURCIA-1%20(ISAAC%20ALBENIZ)&seleccion=hora&espera=1,U.D. DE MURCIA-1 (ISAAC ALBENIZ),"U.D. DE MURCIA-1 (ISAAC ALBENIZ) CALLE ISAAC ALBENIZ, 6, BAJO, (MURCIA)","CALLE ISAAC ALBENIZ, 6, BAJO, (MURCIA)",LMXJV 09:00-20:00; SD sin horario,Disponibilidad de citas: Alta,Murcia,37.7756474,-1.4987501
https://www.citapreviadnie.es/citaPreviaDniExp/ObtenerFechaCitaEspera.action?op=obMeses&equipo=30639C6D1&nombre=U.D.%20DE%20MURCIA-2%20(CEBALLOS)&seleccion=hora&espera=1,U.D. DE MURCIA-2 (CEBALLOS),"U.D. DE MURCIA-2 (CEBALLOS) PLAZA CEBALLOS, 13, (MURCIA)","PLAZA CEBALLOS, 13, (MURCIA)",LMXJV 09:00-14:30; SD sin horario,Disponibilidad de citas: Alta,Murcia,37.9832805,-1.1267303
https://www.citapreviadnie.es/citaPreviaDniExp/ObtenerFechaCitaEspera.action?op=obMeses&equipo=30639R6D1&nombre=U.D.%20DE%20MURCIA-EL%20CARMEN&seleccion=hora&espera=1,U.D. DE MURCIA-EL CARMEN,"U.D. DE MURCIA-EL CARMEN PLAZA DE LA INDUSTRIA, 1, (MURCIA)","PLAZA DE LA INDUSTRIA, 1, (MURCIA)",LMXJ 09:00-14:30/16:00-19:00; V 09:00-14:30; SD sin horario,Disponibilidad de citas: Alta,Murcia,,
https://www.citapreviadnie.es/citaPreviaDniExp/ObtenerFechaCitaEspera.action?op=obMeses&equipo=30947L6D1&nombre=U.D.%20DE%20YECLA&seleccion=hora&espera=1,U.D. DE YECLA,"U.D. DE YECLA CALLE RAMBLA, 34, (YECLA)","CALLE RAMBLA, 34, (YECLA)",LMXJV 09:00-14:30; SD sin horario,Disponibilidad de citas: Media,Murcia,38.6163362,-1.1083698
https://www.citapreviadnie.es/citaPreviaDniExp/ObtenerFechaCitaEspera.action?op=obMeses&equipo=35088L6D1&nombre=U.D.%20DE%20ARRECIFE%20DE%20LANZAROTE&seleccion=hora&espera=1,U.D. DE ARRECIFE DE LANZAROTE,"U.D. DE ARRECIFE DE LANZAROTE CALLE MASTELERO, S/N, (ARRECIFE)","CALLE MASTELERO, S/N, (ARRECIFE)",LMXJV 08:30-14:00/15:00-21:00; SD sin horario,Disponibilidad de citas: Alta,Las Palmas,28.9649171,-13.5421615
https://www.citapreviadnie.es/citaPreviaDniExp/ObtenerFechaCitaEspera.action?op=obMeses&equipo=35465A6D1&nombre=U.D.%20DE%20LAS%20PALMAS&seleccion=hora&espera=1,U.D. DE LAS PALMAS,"U.D. DE LAS PALMAS CALLE LUIS DORESTE SILVA, 68, (LAS PALMAS DE GRAN CANARIA)","CALLE LUIS DORESTE SILVA, 68, (LAS PALMAS DE GRAN CANARIA)",LMXJV 09:00-14:30/15:00-20:30; SD sin horario,Disponibilidad de citas: Alta,Las Palmas,28.1160374,-15.421178
https://www.citapreviadnie.es/citaPreviaDniExp/ObtenerFechaCitaEspera.action?op=obMeses&equipo=35465A6D2&nombre=U.D.%20DE%20LAS%20PALMAS-CENTRO%20(7%20PALMAS)&seleccion=hora&espera=1,U.D. DE LAS PALMAS-CENTRO (7 PALMAS),"U.D. DE LAS PALMAS-CENTRO (7 PALMAS) HOYA DEL ENAMORADO ESQ LOMO SAN LAZARO, (LAS PALMAS DE GRAN CANARIA)","HOYA DEL ENAMORADO ESQ LOMO SAN LAZARO, (LAS PALMAS DE GRAN CANARIA)",LMXJV 09:00-14:30; SD sin horario,Disponibilidad de citas: Alta,Las Palmas,,
https://www.citapreviadnie.es/citaPreviaDniExp/ObtenerFechaCitaEspera.action?op=obMeses&equipo=35494L6D1&nombre=U.D.%20DE%20PUERTO%20DEL%20ROSARIO&seleccion=hora&espera=1,U.D. DE PUERTO DEL ROSARIO,"U.D. DE PUERTO DEL ROSARIO CALLE HERBANIA, 28, (PUERTO DEL ROSARIO)","CALLE HERBANIA, 28, (PUERTO DEL ROSARIO)",LMXJV 09:00-14:30; SD sin horario,Disponibilidad de citas: Alta,Las Palmas,28.5011978,-13.8648654
https://www.citapreviadnie.es/citaPreviaDniExp/ObtenerFechaCitaEspera.action?op=obMeses&equipo=35552L6D1&nombre=U.D.%20DE%20MASPALOMAS&seleccion=hora&espera=1,U.D. DE MASPALOMAS,"U.D. DE MASPALOMAS AVENIDA MOYÁ, 4, (SAN BARTOLOME DE TIRAJANA)","AVENIDA MOYÁ, 4, (SAN BARTOLOME DE TIRAJANA)",LMXJV 09:00-14:30; SD sin horario,Disponibilidad de citas: Alta,Las Palmas,27.765277750000003,-15.570681300408022
https://www.citapreviadnie.es/citaPreviaDniExp/ObtenerFechaCitaEspera.action?op=obMeses&equipo=35639L6D1&nombre=U.D.%20DE%20SANTA%20LUCIA%20DE%20TIRAJANA&seleccion=hora&espera=1,U.D. DE SANTA LUCIA DE TIRAJANA,"U.D. DE SANTA LUCIA DE TIRAJANA VECINDARIO C/ DR. NEGRIN, 10, (SANTA LUCIA DE TIRAJANA)","VECINDARIO C/ DR. NEGRIN, 10, (SANTA LUCIA DE TIRAJANA)",LMXJ 09:00-14:30/16:00-19:00; V 09:00-14:30; SD sin horario,Disponibilidad de citas: Alta,Las Palmas,,
https://www.citapreviadnie.es/citaPreviaDniExp/ObtenerFechaCitaEspera.action?op=obMeses&equipo=35755L6D1&nombre=U.D.%20DE%20TELDE&seleccion=hora&espera=1,U.D. DE TELDE,"U.D. DE TELDE CALLE ESCULTOR EDUARDO CHILLIDA JUANTEGUI, SN, (TELDE)","CALLE ESCULTOR EDUARDO CHILLIDA JUANTEGUI, SN, (TELDE)",LMXJV 09:00-14:30; SD sin horario,Disponibilidad de citas: Alta,Las Palmas,,
https://www.citapreviadnie.es/citaPreviaDniExp/ObtenerFechaCitaEspera.action?op=obMeses&equipo=35871L6D1&nombre=U.D.%20DE%20TUINEJE&seleccion=hora&espera=1,U.D. DE TUINEJE,"U.D. DE TUINEJE AVENIDA PACO HIERRO S/N, CASA DE LA CULTURA, (GRAN TARAJAL)","AVENIDA PACO HIERRO S/N, CASA DE LA CULTURA, (GRAN TARAJAL)",LMXJV 09:00-14:30; SD sin horario,Disponibilidad de citas: Alta,Las Palmas,,
https://www.citapreviadnie.es/citaPreviaDniExp/ObtenerFechaCitaEspera.action?op=obMeses&equipo=38001L6D1&nombre=U.D.%20DE%20SUR%20DE%20TENERIFE&seleccion=hora&espera=1,U.D. DE SUR DE TENERIFE,"U.D. DE SUR DE TENERIFE AV DE LOS PUEBLOS 2, (ADEJE)","AV DE LOS PUEBLOS 2, (ADEJE)",LMXJV 08:30-14:30; SD sin horario,Disponibilidad de citas: Media,Santa Cruz de Tenerife,28.0757325,-16.7317303
https://www.citapreviadnie.es/citaPreviaDniExp/ObtenerFechaCitaEspera.action?op=obMeses&equipo=38397L6D1&nombre=U.D.%20DE%20LA%20LAGUNA&seleccion=hora&espera=1,U.D. DE LA LAGUNA,"U.D. DE LA LAGUNA NAVA Y GRIMÓN 66, (SAN CRISTOBAL DE LA LAGUNA)","NAVA Y GRIMÓN 66, (SAN CRISTOBAL DE LA LAGUNA)",LMXJ 09:00-14:30/15:00-19:00; V 09:00-14:30; SD sin horario,Disponibilidad de citas: Alta,Santa Cruz de Tenerife,28.4900545,-16.3131026
https://www.citapreviadnie.es/citaPreviaDniExp/ObtenerFechaCitaEspera.action?op=obMeses&equipo=38487L6D1&nombre=U.D.%20DE%20PUERTO%20DE%20LA%20CRUZ&seleccion=hora&espera=1,U.D. DE PUERTO DE LA CRUZ,"U.D. DE PUERTO DE LA CRUZ AV.JOSÉ DEL CAMPO LLARENA,3, (PUERTO DE LA CRUZ)","AV.JOSÉ DEL CAMPO LLARENA,3, (PUERTO DE LA CRUZ)",LMXJV 09:00-14:30; SD sin horario,Disponibilidad de citas: Alta,Santa Cruz de Tenerife,,
https://www.citapreviadnie.es/citaPreviaDniExp/ObtenerFechaCitaEspera.action?op=obMeses&equipo=38649L6D1&nombre=U.D.%20DE%20SANTA%20CRUZ%20DE%20LA%20PALMA&seleccion=hora&espera=1,U.D. DE SANTA CRUZ DE LA PALMA,"U.D. DE SANTA CRUZ DE LA PALMA CALLE PÉREZ GALDÓS 16, (SANTA CRUZ DE LA PALMA)","CALLE PÉREZ GALDÓS 16, (SANTA CRUZ DE LA PALMA)",LMXJV 09:00-14:30; SD sin horario,Disponibilidad de citas: Alta,Santa Cruz de Tenerife,28.6878037,-17.7603794
https://www.citapreviadnie.es/citaPreviaDniExp/ObtenerFechaCitaEspera.action?op=obMeses&equipo=38739A6D1&nombre=U.D.%20DE%20SANTA%20CRUZ%20DE%20TENERIFE&seleccion=hora&espera=1,U.D. DE SANTA CRUZ DE TENERIFE,"U.D. DE SANTA CRUZ DE TENERIFE CALLE ROBAYNA, 23, (SANTA CRUZ DE TENERIFE)","CALLE ROBAYNA, 23, (SANTA CRUZ DE TENERIFE)",LMXJV 09:00-14:30; SD sin horario,Disponibilidad de citas: Alta,Santa Cruz de Tenerife,28.4633851,-16.2588052
https://www.citapreviadnie.es/citaPreviaDniExp/ObtenerFechaCitaEspera.action?op=obMeses&equipo=38739N6D1&nombre=U.D.%20DE%20SANTA%20CRUZ%20DE%20TENERIFE%20NORTE&seleccion=hora&espera=1,U.D. DE SANTA CRUZ DE TENERIFE NORTE,"U.D. DE SANTA CRUZ DE TENERIFE NORTE C/R. PEREZ AYALA,6, (SANTA CRUZ DE TENERIFE)","C/R. PEREZ AYALA,6, (SANTA CRUZ DE TENERIFE)",LMXJV 09:00-14:30; SD sin horario,Disponibilidad de citas: Alta,Santa Cruz de Tenerife,,
https://www.citapreviadnie.es/citaPreviaDniExp/ObtenerFechaCitaEspera.action?op=obMeses&equipo=21109P6D1&nombre=U.D.%20DE%20AYAMONTE&seleccion=hora&espera=1,U.D. DE AYAMONTE,"U.D. DE AYAMONTE AVENIDA ALCALDE NARCISO MARTíN NAVARRO, 20, (AYAMONTE)","AVENIDA ALCALDE NARCISO MARTíN NAVARRO, 20, (AYAMONTE)",LMXJ 09:00-14:30/16:00-20:00; V 09:00-14:30; SD sin horario,Disponibilidad de citas: Alta,Huelva,37.2054335,-7.4028934
https://www.citapreviadnie.es/citaPreviaDniExp/ObtenerFechaCitaEspera.action?op=obMeses&equipo=21481A6D1&nombre=U.D.%20DE%20HUELVA&seleccion=hora&espera=1,U.D. DE HUELVA,"U.D. DE HUELVA PASEO DE LA GLORIETA, 2, (HUELVA)","PASEO DE LA GLORIETA, 2, (HUELVA)",LMXJ 09:00-17:00; V 09:00-14:30; SD sin horario,Disponibilidad de citas: Alta,Huelva,37.2616148,-6.9568748
https://www.citapreviadnie.es/citaPreviaDniExp/ObtenerFechaCitaEspera.action?op=obMeses&equipo=41028L6D1&nombre=U.D.%20DE%20ALCALA%20DE%20GUADAIRA&seleccion=hora&espera=1,U.D. DE ALCALA DE GUADAIRA,"U.D. DE ALCALA DE GUADAIRA CALLE MAESTRO JOSE CASADO, ESQUINA JOSE DIAZ RIO, (ALCALÁ DE GUADAÍRA)","CALLE MAESTRO JOSE CASADO, ESQUINA JOSE DIAZ RIO, (ALCALÁ DE GUADAÍRA)",LMXJV 09:00-14:30; SD sin horario,Disponibilidad de citas: Alta,Sevilla,,
https://www.citapreviadnie.es/citaPreviaDniExp/ObtenerFechaCitaEspera.action?op=obMeses&equipo=41181L6D1&nombre=U.D.%20DE%20CAMAS&seleccion=hora&espera=1,U.D. DE CAMAS,"U.D. DE CAMAS CALLE GENIL, 1, (CAMAS)","CALLE GENIL, 1, (CAMAS)",LMXJ 09:00-14:30/15:30-20:30; V 09:00-14:30; SD sin horario,Disponibilidad de citas: Alta,Sevilla,37.3997462,-6.0325605
https://www.citapreviadnie.es/citaPreviaDniExp/ObtenerFechaCitaEspera.action?op=obMeses&equipo=41298L6D1&nombre=U.D.%20DE%20CORIA%20DEL%20RIO&seleccion=hora&espera=1,U.D. DE CORIA DEL RIO,"U.D. DE CORIA DEL RIO CALLE CORBONES, 2, (CORIA DEL RIO)","CALLE CORBONES, 2, (CORIA DEL RIO)",LMXJV 09:00-14:30; SD sin horario,Disponibilidad de citas: Alta,Sevilla,,
https://www.citapreviadnie.es/citaPreviaDniExp/ObtenerFechaCitaEspera.action?op=obMeses&equipo=41334L6D1&nombre=U.D.%20DE%20DOS%20HERMANAS&seleccion=hora&espera=1,U.D. DE DOS HERMANAS,"U.D. DE DOS HERMANAS CALLE LUIS ORTEGA BRU, S/N, (DOS HERMANAS)","CALLE LUIS ORTEGA BRU, S/N, (DOS HERMANAS)",LMXJV 09:00-14:30; SD sin horario,Disponibilidad de citas: Alta,Sevilla,37.2909736,-5.9255939
https://www.citapreviadnie.es/citaPreviaDniExp/ObtenerFechaCitaEspera.action?op=obMeses&equipo=41343L6D1&nombre=U.D.%20DE%20ECIJA&seleccion=hora&espera=1,U.D. DE ECIJA,"U.D. DE ECIJA CALLE CUATRO DE DICIEMBRE S/N, (ECIJA)","CALLE CUATRO DE DICIEMBRE S/N, (ECIJA)",LMXJ 09:00-14:30/15:00-18:00; V 09:00-14:30; SD sin horario,Disponibilidad de citas: Alta,Sevilla,,
https://www.citapreviadnie.es/citaPreviaDniExp/ObtenerFechaCitaEspera.action?op=obMeses&equipo=41577L6D1&nombre=U.D.%20DE%20MORON%20DE%20LA%20FRONTERA&seleccion=hora&espera=1,U.D. DE MORON DE LA FRONTERA,"U.D. DE MORON DE LA FRONTERA CALLE CARRERA, 18, (MORON DE LA FRONTERA)","CALLE CARRERA, 18, (MORON DE LA FRONTERA)",LMXJV 09:00-14:30/16:00-19:00; SD sin horario,Disponibilidad de citas: Alta,Sevilla,37.1211172,-5.4556472
https://www.citapreviadnie.es/citaPreviaDniExp/ObtenerFechaCitaEspera.action?op=obMeses&equipo=41757L6D1&nombre=U.D.%20DE%20SAN%20JUAN%20DE%20AZNALFARACHE&seleccion=hora&espera=1,U.D. DE SAN JUAN DE AZNALFARACHE,"U.D. DE SAN JUAN DE AZNALFARACHE AVENIDA 28 DE FEBRERO, 59, (SAN JUAN DE AZNALFARACHE)","AVENIDA 28 DE FEBRERO, 59, (SAN JUAN DE AZNALFARACHE)",LMXJV 09:00-14:30; SD sin horario,Disponibilidad de citas: Alta,Sevilla,,
https://www.citapreviadnie.es/citaPreviaDniExp/ObtenerFechaCitaEspera.action?op=obMeses&equipo=41811A6D1&nombre=U.D.%20DE%20SEVILLA-1-CENTRO&seleccion=hora&espera=1,U.D. DE SEVILLA-1-CENTRO,"U.D. DE SEVILLA-1-CENTRO ALAMEDA DE HÉRCULES nº 16, (SEVILLA)","ALAMEDA DE HÉRCULES nº 16, (SEVILLA)",LMXJV 09:00-14:30; SD sin horario,Disponibilidad de citas: Media,Sevilla,37.3988288,-5.9939628
https://www.citapreviadnie.es/citaPreviaDniExp/ObtenerFechaCitaEspera.action?op=obMeses&equipo=41811A6D7&nombre=U.D.%20DE%20SEVILLA-TABLADA&seleccion=hora&espera=1,U.D. DE SEVILLA-TABLADA,"U.D. DE SEVILLA-TABLADA AVENIDA MAESTRANZA AEREA NUMERO  32-B ACCESO  C, (SEVILLA)","AVENIDA MAESTRANZA AEREA NUMERO 32-B ACCESO C, (SEVILLA)",LMXJ 09:00-14:30/16:00-21:00; V 09:00-14:30; SD sin horario,Disponibilidad de citas: Alta,Sevilla,,
https://www.citapreviadnie.es/citaPreviaDniExp/ObtenerFechaCitaEspera.action?op=obMeses&equipo=41811U6D1&nombre=U.D.%20DE%20SEVILLA-ESTE&seleccion=hora&espera=1,U.D. DE SEVILLA-ESTE,"U.D. DE SEVILLA-ESTE C/ FRANCISCO ARAGON ALVAREZ Nº 1, (SEVILLA)","C/ FRANCISCO ARAGON ALVAREZ Nº 1, (SEVILLA)",LMXJV 09:00-14:30; SD sin horario,Disponibilidad de citas: Alta,Sevilla,37.402979,-5.9200569
https://www.citapreviadnie.es/citaPreviaDniExp/ObtenerFechaCitaEspera.action?op=obMeses&equipo=14170L6D1&nombre=U.D.%20DE%20CABRA&seleccion=hora&espera=1,U.D. DE CABRA,"U.D. DE CABRA VÍCTIMAS DEL TERRORISMO, SN, (CABRA)","VÍCTIMAS DEL TERRORISMO, SN, (CABRA)",LMXJV 09:00-14:30; SD sin horario,Disponibilidad de citas: Alta,Córdoba,,
https://www.citapreviadnie.es/citaPreviaDniExp/ObtenerFechaCitaEspera.action?op=obMeses&equipo=14261A6D1&nombre=U.D.%20DE%20C%C3%93RDOBA-1&seleccion=hora&espera=1,U.D. DE CÓRDOBA-1,"U.D. DE CÓRDOBA-1 PLAZA DE LA POLICIA NACIONAL, 1, (CORDOBA)","PLAZA DE LA POLICIA NACIONAL, 1, (CORDOBA)",LMXJ 09:00-14:30/16:00-20:00; V 09:00-14:30; S 09:00-14:00; D sin hora,Disponibilidad de citas: Alta,Córdoba,,
https://www.citapreviadnie.es/citaPreviaDniExp/ObtenerFechaCitaEspera.action?op=obMeses&equipo=14261A6D2&nombre=U.D.%20DE%20C%C3%93RDOBA-2%20(PARQUE%20FIGUEROA)&seleccion=hora&espera=1,U.D. DE CÓRDOBA-2 (PARQUE FIGUEROA),"U.D. DE CÓRDOBA-2 (PARQUE FIGUEROA) AVENIDA DEL MEDITERRANEO, S/N, (CORDOBA)","AVENIDA DEL MEDITERRANEO, S/N, (CORDOBA)",LMXJV 09:00-14:30; SD sin horario,Disponibilidad de citas: Alta,Córdoba,37.8899608,-4.8020489
https://www.citapreviadnie.es/citaPreviaDniExp/ObtenerFechaCitaEspera.action?op=obMeses&equipo=14482L6D1&nombre=U.D.%20DE%20LUCENA&seleccion=hora&espera=1,U.D. DE LUCENA,"U.D. DE LUCENA CALLE MIGUEL CRUZ CUENCA, Nº 5, (LUCENA)","CALLE MIGUEL CRUZ CUENCA, Nº 5, (LUCENA)",LMXJV 09:00-14:30; SD sin horario,Disponibilidad de citas: Alta,Córdoba,37.4089352,-4.4935045
https://www.citapreviadnie.es/citaPreviaDniExp/ObtenerFechaCitaEspera.action?op=obMeses&equipo=23041L6D1&nombre=U.D.%20DE%20ANDUJAR&seleccion=hora&espera=1,U.D. DE ANDUJAR,"U.D. DE ANDUJAR CALLE CORREDERA DE SAN BARTOLOME, 43, (ANDUJAR)","CALLE CORREDERA DE SAN BARTOLOME, 43, (ANDUJAR)",LMXJV 09:00-14:30; SD sin horario,Disponibilidad de citas: Alta,Jaén,,
https://www.citapreviadnie.es/citaPreviaDniExp/ObtenerFechaCitaEspera.action?op=obMeses&equipo=23471A6D1&nombre=U.D.%20DE%20JAEN&seleccion=hora&espera=1,U.D. DE JAEN,"U.D. DE JAEN CALLE OBISPO ESTÚÑIGA, 7, (JAEN)","CALLE OBISPO ESTÚÑIGA, 7, (JAEN)",LMXJ 09:00-19:00; V 09:00-14:30; SD sin horario,Disponibilidad de citas: Alta,Jaén,37.7759164,-3.790631
https://www.citapreviadnie.es/citaPreviaDniExp/ObtenerFechaCitaEspera.action?op=obMeses&equipo=23521L6D1&nombre=U.D.%20DE%20LINARES&seleccion=hora&espera=1,U.D. DE LINARES,"U.D. DE LINARES CALLE HERNáN CORTéS, 16, (LINARES)","CALLE HERNáN CORTéS, 16, (LINARES)",LMXJV 09:00-14:30; SD sin horario,Disponibilidad de citas: Alta,Jaén,,
https://www.citapreviadnie.es/citaPreviaDniExp/ObtenerFechaCitaEspera.action?op=obMeses&equipo=23861L6D1&nombre=U.D.%20DE%20UBEDA&seleccion=hora&espera=1,U.D. DE UBEDA,"U.D. DE UBEDA PLAZA VáZQUEZ DE MOLINA, 4, (UBEDA)","PLAZA VáZQUEZ DE MOLINA, 4, (UBEDA)",LMXJV 09:00-14:30; SD sin horario,Disponibilidad de citas: Alta,Jaén,38.00763625,-3.36823768584349
https://www.citapreviadnie.es/citaPreviaDniExp/ObtenerFechaCitaEspera.action?op=obMeses&equipo=04109A6D1&nombre=U.D.%20DE%20ALMERIA&seleccion=hora&espera=1,U.D. DE ALMERIA,"U.D. DE ALMERIA AVENIDA DEL MEDITERRANEO, 201, (ALMERÍA)","AVENIDA DEL MEDITERRANEO, 201, (ALMERÍA)",LMXJ 09:00-19:00; V 09:00-14:30/16:00-19:00; SD sin horario,Disponibilidad de citas: Alta,Almería,36.8362886,-2.4474464
https://www.citapreviadnie.es/citaPreviaDniExp/ObtenerFechaCitaEspera.action?op=obMeses&equipo=04349L6D1&nombre=U.D.%20DE%20EL%20EJIDO&seleccion=hora&espera=1,U.D. DE EL EJIDO,"U.D. DE EL EJIDO AVENIDA BULEVAR DE EL EJIDO, 117, (EL EJIDO)","AVENIDA BULEVAR DE EL EJIDO, 117, (EL EJIDO)",LMXJ 09:00-14:30/16:00-19:00; V 09:00-14:30; SD sin horario,Disponibilidad de citas: Alta,Almería,36.7719644,-2.8222126
https://www.citapreviadnie.es/citaPreviaDniExp/ObtenerFechaCitaEspera.action?op=obMeses&equipo=04451L6D1&nombre=U.D.%20DE%20HU%C3%89RCAL-OVERA&seleccion=hora&espera=1,U.D. DE HUÉRCAL-OVERA,"U.D. DE HUÉRCAL-OVERA AVDA. DE LA MOLINETA, 70, (HUERCAL OVERA)","AVDA. DE LA MOLINETA, 70, (HUERCAL OVERA)",LMXJV 08:30-14:30; SD sin horario,Disponibilidad de citas: Alta,Almería,,
https://www.citapreviadnie.es/citaPreviaDniExp/ObtenerFechaCitaEspera.action?op=obMeses&equipo=04685L6D1&nombre=U.D.%20DE%20ROQUETAS%20DE%20MAR&seleccion=hora&espera=1,U.D. DE ROQUETAS DE MAR,"U.D. DE ROQUETAS DE MAR AVDA. DE CURRO ROMERO, 46, (ROQUETAS DE MAR)","AVDA. DE CURRO ROMERO, 46, (ROQUETAS DE MAR)",LMXJV 08:30-14:30; SD sin horario,Disponibilidad de citas: Alta,Almería,36.7675925,-2.6177876
https://www.citapreviadnie.es/citaPreviaDniExp/ObtenerFechaCitaEspera.action?op=obMeses&equipo=11070L6D1&nombre=U.D.%20DE%20ALGECIRAS&seleccion=hora&espera=1,U.D. DE ALGECIRAS,"U.D. DE ALGECIRAS AVENIDA DE LAS FUERZAS ARMADAS N-6, (ALGECIRAS)","AVENIDA DE LAS FUERZAS ARMADAS N-6, (ALGECIRAS)",LMXJ 09:00-14:30/16:00-19:00; V 09:00-14:30; SD sin horario,Disponibilidad de citas: Alta,Cádiz,36.1354266,-5.4502873
https://www.citapreviadnie.es/citaPreviaDniExp/ObtenerFechaCitaEspera.action?op=obMeses&equipo=11254A6D1&nombre=U.D.%20DE%20CADIZ&seleccion=hora&espera=1,U.D. DE CADIZ,"U.D. DE CADIZ AVENIDA ANDALUCIA, 28, (CADIZ)","AVENIDA ANDALUCIA, 28, (CADIZ)",LMXJV 09:00-14:30; SD sin horario,Disponibilidad de citas: Alta,Cádiz,36.1756612,-5.4365369
https://www.citapreviadnie.es/citaPreviaDniExp/ObtenerFechaCitaEspera.action?op=obMeses&equipo=11300L6D1&nombre=U.D.%20DE%20CHICLANA%20DE%20LA%20FRONTERA&seleccion=hora&espera=1,U.D. DE CHICLANA DE LA FRONTERA,"U.D. DE CHICLANA DE LA FRONTERA CALLE LA FUENTE, 7, (CHICLANA DE LA FRONTERA)","CALLE LA FUENTE, 7, (CHICLANA DE LA FRONTERA)",LMXJV 09:00-14:30; SD sin horario,Disponibilidad de citas: Media,Cádiz,36.4205862,-6.1465981
https://www.citapreviadnie.es/citaPreviaDniExp/ObtenerFechaCitaEspera.action?op=obMeses&equipo=11438L6D1&nombre=U.D.%20DE%20JEREZ%20DE%20LA%20FRONTERA&seleccion=hora&espera=1,U.D. DE JEREZ DE LA FRONTERA,"U.D. DE JEREZ DE LA FRONTERA Avda. Universidad, S/N, (JEREZ DE LA FRONTERA)","Avda. Universidad, S/N, (JEREZ DE LA FRONTERA)",LMXJV 09:00-14:30/16:00-19:00; SD sin horario,Disponibilidad de citas: Alta,Cádiz,36.6854773,-6.1210282
https://www.citapreviadnie.es/citaPreviaDniExp/ObtenerFechaCitaEspera.action?op=obMeses&equipo=11484L6D1&nombre=U.D.%20DE%20LA%20LINEA%20DE%20LA%20CONCEPCION&seleccion=hora&espera=1,U.D. DE LA LINEA DE LA CONCEPCION,"U.D. DE LA LINEA DE LA CONCEPCION AVENIDA MENENDEZ PELAYO, 2, (LA LÍNEA DE LA CONCEPCIÓN)","AVENIDA MENENDEZ PELAYO, 2, (LA LÍNEA DE LA CONCEPCIÓN)",LMXJV 09:00-14:30; SD sin horario,Disponibilidad de citas: Alta,Cádiz,36.1726788,-5.3378772
https://www.citapreviadnie.es/citaPreviaDniExp/ObtenerFechaCitaEspera.action?op=obMeses&equipo=11599L6D1&nombre=U.D.%20DE%20PUERTO%20REAL&seleccion=hora&espera=1,U.D. DE PUERTO REAL,"U.D. DE PUERTO REAL CARPINTERO DE RIBERA S/N, (PUERTO REAL)","CARPINTERO DE RIBERA S/N, (PUERTO REAL)",LMXJV 09:00-14:30; SD sin horario,Disponibilidad de citas: Alta,Cádiz,,
https://www.citapreviadnie.es/citaPreviaDniExp/ObtenerFechaCitaEspera.action?op=obMeses&equipo=11622L6D1&nombre=U.D.%20DE%20PUERTO%20DE%20SANTA%20MAR%C3%8DA&seleccion=hora&espera=1,U.D. DE PUERTO DE SANTA MARÍA,"U.D. DE PUERTO DE SANTA MARÍA AVDA. DE LA CONSTITUCION Nº 4, (EL PUERTO DE SANTA MARIA)","AVDA. DE LA CONSTITUCION Nº 4, (EL PUERTO DE SANTA MARIA)",LMXJV 09:00-14:30; SD sin horario,Disponibilidad de citas: Alta,Cádiz,36.5933461,-6.232775
https://www.citapreviadnie.es/citaPreviaDniExp/ObtenerFechaCitaEspera.action?op=obMeses&equipo=11668L6D1&nombre=U.D.%20DE%20ROTA&seleccion=hora&espera=1,U.D. DE ROTA,"U.D. DE ROTA AVENIDA PRINCIPES DE ESPAÑA, 113, (ROTA)","AVENIDA PRINCIPES DE ESPAÑA, 113, (ROTA)",LMXJV 09:00-14:30; SD sin horario,Disponibilidad de citas: Alta,Cádiz,36.6241697,-6.3642145
https://www.citapreviadnie.es/citaPreviaDniExp/ObtenerFechaCitaEspera.action?op=obMeses&equipo=11691L6D1&nombre=U.D.%20DE%20SAN%20FERNANDO&seleccion=hora&espera=1,U.D. DE SAN FERNANDO,"U.D. DE SAN FERNANDO CALLE ARENAL 15, (SAN FERNANDO)","CALLE ARENAL 15, (SAN FERNANDO)",LMXJV 09:00-14:30; SD sin horario,Disponibilidad de citas: Alta,Cádiz,36.4659969,-6.2004285
https://www.citapreviadnie.es/citaPreviaDniExp/ObtenerFechaCitaEspera.action?op=obMeses&equipo=11737L6D1&nombre=U.D.%20DE%20SANL%C3%9ACAR%20DE%20BARRAMEDA&seleccion=hora&espera=1,U.D. DE SANLÚCAR DE BARRAMEDA,"U.D. DE SANLÚCAR DE BARRAMEDA PASEO DEL JARDIN BOTÁNICO Nº 1, (SANLUCAR DE BARRAMEDA)","PASEO DEL JARDIN BOTÁNICO Nº 1, (SANLUCAR DE BARRAMEDA)",LMXJV 09:00-14:30; SD sin horario,Disponibilidad de citas: Alta,Cádiz,36.7699951,-6.3546864
https://www.citapreviadnie.es/citaPreviaDniExp/ObtenerFechaCitaEspera.action?op=obMeses&equipo=29141L6D1&nombre=U.D.%20DE%20ANTEQUERA&seleccion=hora&espera=1,U.D. DE ANTEQUERA,"U.D. DE ANTEQUERA CALLE CIUDAD DE OAXACA, S/N, (ANTEQUERA)","CALLE CIUDAD DE OAXACA, S/N, (ANTEQUERA)",LMXJV 09:00-14:30; SD sin horario,Disponibilidad de citas: Alta,Málaga,,
https://www.citapreviadnie.es/citaPreviaDniExp/ObtenerFechaCitaEspera.action?op=obMeses&equipo=29491L6D1&nombre=U.D.%20DE%20ESTEPONA&seleccion=hora&espera=1,U.D. DE ESTEPONA,"U.D. DE ESTEPONA VALLE INCLAN, 1, (ESTEPONA)","VALLE INCLAN, 1, (ESTEPONA)",LMXJ 09:00-14:30/16:00-19:00; V 09:00-14:30; SD sin horario,Disponibilidad de citas: Media,Málaga,36.4325998,-5.1493774
https://www.citapreviadnie.es/citaPreviaDniExp/ObtenerFechaCitaEspera.action?op=obMeses&equipo=29521L6D1&nombre=U.D.%20DE%20FUENGIROLA&seleccion=hora&espera=1,U.D. DE FUENGIROLA,"U.D. DE FUENGIROLA AVENIDA CONDE SAN ISIDRO, 98, (FUENGIROLA)","AVENIDA CONDE SAN ISIDRO, 98, (FUENGIROLA)",LMXJ 09:00-14:30/15:00-19:00; V 09:00-14:30; SD sin horario,Disponibilidad de citas: Media,Málaga,,
https://www.citapreviadnie.es/citaPreviaDniExp/ObtenerFechaCitaEspera.action?op=obMeses&equipo=29661A6D1&nombre=U.D.%20DE%20M%C3%81LAGA&seleccion=hora&espera=1,U.D. DE MÁLAGA,"U.D. DE MÁLAGA PLAZA MANUEL AZAÑA, 3, (MALAGA)","PLAZA MANUEL AZAÑA, 3, (MALAGA)",LMXJV 09:00-14:30/15:00-20:00; SD sin horario,Disponibilidad de citas: Alta,Málaga,,
https://www.citapreviadnie.es/citaPreviaDniExp/ObtenerFechaCitaEspera.action?op=obMeses&equipo=29661C6D1&nombre=U.D.%20DE%20M%C3%81LAGA-CENTRO&seleccion=hora&espera=1,U.D. DE MÁLAGA-CENTRO,"U.D. DE MÁLAGA-CENTRO CALLE RAMOS MARIN, 4, (MALAGA)","CALLE RAMOS MARIN, 4, (MALAGA)",LMXJ 09:00-16:00; V 09:00-14:30; SD sin horario,Disponibilidad de citas: Media,Málaga,36.7247004,-4.4180218
https://www.citapreviadnie.es/citaPreviaDniExp/ObtenerFechaCitaEspera.action?op=obMeses&equipo=29661N6D1&nombre=U.D.%20DE%20M%C3%81LAGA-NORTE&seleccion=hora&espera=1,U.D. DE MÁLAGA-NORTE,"U.D. DE MÁLAGA-NORTE AVENIDA DE LA PALMILLA, 20, (MALAGA)","AVENIDA DE LA PALMILLA, 20, (MALAGA)",LMXJV 09:00-14:30; SD sin horario,Disponibilidad de citas: Alta,Málaga,36.73884045,-4.425877439895135
https://www.citapreviadnie.es/citaPreviaDniExp/ObtenerFechaCitaEspera.action?op=obMeses&equipo=29681L6D1&nombre=U.D.%20DE%20MARBELLA&seleccion=hora&espera=1,U.D. DE MARBELLA,"U.D. DE MARBELLA AV DUQUE DE LERMA, ED ESPAÑA, LOCAL 3, (MARBELLA)","AV DUQUE DE LERMA, ED ESPAÑA, LOCAL 3, (MARBELLA)",LMXJ 09:00-14:30/15:30-18:30; V 09:00-14:30; SD sin horario,Disponibilidad de citas: Media,Málaga,,
https://www.citapreviadnie.es/citaPreviaDniExp/ObtenerFechaCitaEspera.action?op=obMeses&equipo=29681L6D2&nombre=U.D.%20DE%20SAN%20PEDRO%20DE%20ALCANTARA&seleccion=hora&espera=1,U.D. DE SAN PEDRO DE ALCANTARA,"U.D. DE SAN PEDRO DE ALCANTARA CALLE MANUEL CANTOS Nº30, (SAN PEDRO DE ALCANTARA)","CALLE MANUEL CANTOS Nº30, (SAN PEDRO DE ALCANTARA)",LMXJV 09:00-14:30; SD sin horario,Disponibilidad de citas: Media,Málaga,36.4857863,-4.9903791
https://www.citapreviadnie.es/citaPreviaDniExp/ObtenerFechaCitaEspera.action?op=obMeses&equipo=29821L6D1&nombre=U.D.%20DE%20RONDA&seleccion=hora&espera=1,U.D. DE RONDA,"U.D. DE RONDA AVENIDA DE MALAGA, 9, (RONDA)","AVENIDA DE MALAGA, 9, (RONDA)",LMXJ 09:00-14:30/16:00-19:00; V 09:00-14:30; SD sin horario,Disponibilidad de citas: Alta,Málaga,36.74700255,-5.158414287253693
https://www.citapreviadnie.es/citaPreviaDniExp/ObtenerFechaCitaEspera.action?op=obMeses&equipo=29886L6D2&nombre=U.D.%20DE%20TORREMOLINOS&seleccion=hora&espera=1,U.D. DE TORREMOLINOS,"U.D. DE TORREMOLINOS CALLE SKAL, 12, (TORREMOLINOS)","CALLE SKAL, 12, (TORREMOLINOS)",LMXJV 09:00-14:30; SD sin horario,Disponibilidad de citas: Media,Málaga,36.6199539,-4.4981258
https://www.citapreviadnie.es/citaPreviaDniExp/ObtenerFechaCitaEspera.action?op=obMeses&equipo=29886L6D3&nombre=U.D.%20DE%20BENALM%C3%81DENA&seleccion=hora&espera=1,U.D. DE BENALMÁDENA,"U.D. DE BENALMÁDENA CALLE LAS FLORES, 6, (BENALMÁDENA)","CALLE LAS FLORES, 6, (BENALMÁDENA)",LMXJV 09:00-14:30; SD sin horario,Disponibilidad de citas: Alta,Málaga,36.6010427,-4.5340235
https://www.citapreviadnie.es/citaPreviaDniExp/ObtenerFechaCitaEspera.action?op=obMeses&equipo=29921L6D1&nombre=U.D.%20DE%20VELEZ-M%C3%81LAGA&seleccion=hora&espera=1,U.D. DE VELEZ-MÁLAGA,"U.D. DE VELEZ-MÁLAGA CALLE PUERTA DEL MAR, 4-TORRE DEL MAR-VELEZ MALA, (VELEZ-MALAGA)","CALLE PUERTA DEL MAR, 4-TORRE DEL MAR-VELEZ MALA, (VELEZ-MALAGA)",LMXJV 09:00-14:30; SD sin horario,Disponibilidad de citas: Media,Málaga,,
https://www.citapreviadnie.es/citaPreviaDniExp/ObtenerFechaCitaEspera.action?op=obMeses&equipo=18121L6D1&nombre=U.D.%20DE%20BAZA&seleccion=hora&espera=1,U.D. DE BAZA,"U.D. DE BAZA CALLE ALHONDIGA, 18, (BAZA)","CALLE ALHONDIGA, 18, (BAZA)",LMXJV 09:00-14:30; SD sin horario,Disponibilidad de citas: Alta,Granada,37.4892188,-2.774651
https://www.citapreviadnie.es/citaPreviaDniExp/ObtenerFechaCitaEspera.action?op=obMeses&equipo=18433A6D1&nombre=U.D.%20DE%20GRANADA-CENTRO&seleccion=hora&espera=1,U.D. DE GRANADA-CENTRO,"U.D. DE GRANADA-CENTRO PLAZA DE LOS CAMPOS, 3, (GRANADA-CENTRO)","PLAZA DE LOS CAMPOS, 3, (GRANADA-CENTRO)",LMXJV 09:00-14:30; SD sin horario,Disponibilidad de citas: Alta,Granada,37.1726437,-3.5957142447505093
https://www.citapreviadnie.es/citaPreviaDniExp/ObtenerFechaCitaEspera.action?op=obMeses&equipo=18433O6D1&nombre=U.D.%20DE%20GRANADA-NORTE&seleccion=hora&espera=1,U.D. DE GRANADA-NORTE,"U.D. DE GRANADA-NORTE CALLE LA PALMITA, 1, (GRANADA)","CALLE LA PALMITA, 1, (GRANADA)",LMXJV 09:00-14:30/16:00-19:00; S 09:00-14:00; D sin horario,Disponibilidad de citas: Alta,Granada,37.1995078,-3.621509388679989
https://www.citapreviadnie.es/citaPreviaDniExp/ObtenerFechaCitaEspera.action?op=obMeses&equipo=18433S6D1&nombre=U.D.%20DE%20GRANADA-SUR&seleccion=hora&espera=1,U.D. DE GRANADA-SUR,"U.D. DE GRANADA-SUR BARRIO DEL ZAIDIN,  PLZA LAS PALOMAS, C/ CHILE 1, (GRANADA)","BARRIO DEL ZAIDIN, PLZA LAS PALOMAS, C/ CHILE 1, (GRANADA)",LMXJV 09:00-14:30; SD sin horario,Disponibilidad de citas: Alta,Granada,,
https://www.citapreviadnie.es/citaPreviaDniExp/ObtenerFechaCitaEspera.action?op=obMeses&equipo=18685L6D1&nombre=U.D.%20DE%20MOTRIL&seleccion=hora&espera=1,U.D. DE MOTRIL,"U.D. DE MOTRIL RONDA DEL MEDIODIA S/N, (MOTRIL)","RONDA DEL MEDIODIA S/N, (MOTRIL)",LMXJV 09:00-14:30; SD sin horario,Disponibilidad de citas: Alta,Granada,36.7406668,-3.5213663
https://www.citapreviadnie.es/citaPreviaDniExp/ObtenerFechaCitaEspera.action?op=obMeses&equipo=51001A6D1&nombre=U.D.%20DE%20CEUTA&seleccion=hora&espera=1,U.D. DE CEUTA,"U.D. DE CEUTA PASEO DE COLóN, 4, (CEUTA)","PASEO DE COLóN, 4, (CEUTA)",LMXJV 09:00-14:30; SD sin horario,Disponibilidad de citas: Alta,Ceuta,35.8869933,-5.312517
https://www.citapreviadnie.es/citaPreviaDniExp/ObtenerFechaCitaEspera.action?op=obMeses&equipo=52001A6D1&nombre=U.D.%20DE%20MELILLA&seleccion=hora&espera=1,U.D. DE MELILLA,"U.D. DE MELILLA CALLE ACTOR TALLAVI, 3, (MELILLA)","CALLE ACTOR TALLAVI, 3, (MELILLA)",LMXJV 09:00-14:30; SD sin horario,Disponibilidad de citas: Alta,Melilla,35.2885093,-2.9403222
